{"type":"FeatureCollection","features":[{"type":"Feature","properties":{"name":"Lake Kagawong","osm_relation_id":1703182,"natural":"water","water":"lake","wikidata":"Q6425513","wikipedia":"en:Lake Kagawong","source":"NRCan-CanVec-7.0","attribution":"(c) OpenStreetMap contributors, ODbL 1.0. Geometry via Overpass API, retrieved 2026-08-19."},"geometry":{"type":"Polygon","coordinates":[[[-82.2730302,45.8905624],[-82.2730649,45.8906217],[-82.2732331,45.8909807],[-82.273521,45.8913295],[-82.2740685,45.8916336],[-82.2753242,45.8919563],[-82.2768898,45.8921055],[-82.2796202,45.8922202],[-82.2801716,45.8921533],[-82.2805914,45.8919137],[-82.280664,45.891172],[-82.2806205,45.8907853],[-82.2806222,45.8903326],[-82.2809615,45.8896105],[-82.2811996,45.8886113],[-82.2813601,45.8883713],[-82.282023,45.8877856],[-82.2828468,45.8875398],[-82.2840716,45.8874323],[-82.2854262,45.8872797],[-82.2856933,45.8872087],[-82.2859733,45.8870037],[-82.2862891,45.8865411],[-82.287501,45.8851361],[-82.2875791,45.8849116],[-82.2883921,45.8827345],[-82.2893166,45.8814702],[-82.2896981,45.880736],[-82.290055,45.8799077],[-82.290078,45.8797388],[-82.2898702,45.8792927],[-82.2896416,45.879052],[-82.2893054,45.8789591],[-82.2884004,45.8789489],[-82.288064,45.8789013],[-82.2880299,45.8786609],[-82.2885747,45.8783031],[-82.2893813,45.8779371],[-82.2897289,45.8776329],[-82.2897446,45.8773996],[-82.2892765,45.876509],[-82.2892329,45.8761676],[-82.2891756,45.8761414],[-82.2886861,45.8763983],[-82.2881284,45.8761745],[-82.2879512,45.876249],[-82.287746,45.8764646],[-82.2870517,45.8768012],[-82.2864318,45.8772842],[-82.2861589,45.8775989],[-82.286098,45.8778983],[-82.2861773,45.8780273],[-82.2865385,45.8781237],[-82.2865457,45.8781882],[-82.2863932,45.8783115],[-82.2856127,45.8783642],[-82.2854983,45.8782665],[-82.2854921,45.8779304],[-82.2858432,45.8773459],[-82.2867144,45.8763096],[-82.2873308,45.8754365],[-82.2878282,45.875063],[-82.287958,45.874947],[-82.2882484,45.8746876],[-82.2890419,45.8737399],[-82.2901502,45.8718856],[-82.2903552,45.8717153],[-82.2913207,45.8714714],[-82.2915804,45.871336],[-82.2916109,45.8711863],[-82.2914142,45.8711041],[-82.2912356,45.8708705],[-82.290773,45.8705424],[-82.2897665,45.8689596],[-82.2889359,45.8684254],[-82.2886752,45.8681167],[-82.288481,45.8673554],[-82.2884597,45.8670263],[-82.2881933,45.8655301],[-82.2882417,45.865229],[-82.2881438,45.8640012],[-82.2878059,45.8630204],[-82.2875675,45.8620536],[-82.2875593,45.8615451],[-82.2879018,45.8605428],[-82.2883526,45.8599272],[-82.2884065,45.8594728],[-82.288202,45.8587917],[-82.2881612,45.8583511],[-82.2885581,45.8567586],[-82.2887338,45.8563758],[-82.2892845,45.8556838],[-82.2896092,45.8547424],[-82.289418,45.8545522],[-82.2893712,45.8544007],[-82.289604,45.8540894],[-82.2896369,45.8532154],[-82.2895859,45.8528549],[-82.2892306,45.8525601],[-82.2888351,45.8523592],[-82.2878295,45.8520719],[-82.2875437,45.8518503],[-82.2874146,45.8517142],[-82.2871962,45.851484],[-82.2866376,45.8509067],[-82.2862657,45.8504012],[-82.285893,45.8501219],[-82.285851,45.8499983],[-82.285893,45.8494063],[-82.2858245,45.8490615],[-82.286225,45.8485294],[-82.2862736,45.848183],[-82.2866265,45.8477257],[-82.2867673,45.8473743],[-82.2877271,45.8464775],[-82.2884029,45.8455768],[-82.2892122,45.8449758],[-82.2897326,45.8443429],[-82.2899091,45.8437338],[-82.2902917,45.8433079],[-82.2905284,45.8432961],[-82.2925195,45.8445652],[-82.293583,45.8453679],[-82.2941225,45.8456978],[-82.2949042,45.8458628],[-82.2952327,45.8459817],[-82.296378,45.846189],[-82.2968831,45.8463692],[-82.2975305,45.8464608],[-82.2979439,45.8465102],[-82.2982948,45.8466413],[-82.2986332,45.8467707],[-82.3004884,45.8470331],[-82.3012003,45.8472153],[-82.3017279,45.8474076],[-82.3020162,45.8476205],[-82.3022209,45.8482563],[-82.302544,45.8485285],[-82.3030665,45.8487382],[-82.3039506,45.8488632],[-82.304386,45.8490606],[-82.3046001,45.8490818],[-82.3047472,45.8490664],[-82.3079398,45.8487387],[-82.3083314,45.8485947],[-82.3086038,45.8483253],[-82.3090323,45.8483224],[-82.3094828,45.8484676],[-82.3100083,45.8485328],[-82.3101749,45.8486288],[-82.3102316,45.8488361],[-82.3100493,45.8489734],[-82.3100615,45.8490657],[-82.3104645,45.8492856],[-82.3109713,45.8497739],[-82.3113793,45.8499765],[-82.312515,45.850934],[-82.3133284,45.8513931],[-82.3143961,45.8518247],[-82.3155168,45.851983],[-82.3156437,45.8520371],[-82.3157079,45.8522636],[-82.3159339,45.8525129],[-82.3162027,45.8526142],[-82.316498,45.8530273],[-82.3169404,45.8534249],[-82.3174504,45.8537234],[-82.3182333,45.8544226],[-82.31897,45.8546988],[-82.3193457,45.8549239],[-82.3196642,45.8550775],[-82.3218697,45.855878],[-82.3227885,45.8561526],[-82.323224,45.8563499],[-82.3247311,45.8565173],[-82.3251221,45.8565997],[-82.3257424,45.8566962],[-82.3265464,45.857009],[-82.3273034,45.8572154],[-82.3280013,45.857178],[-82.3281605,45.8572548],[-82.3282848,45.8573629],[-82.3284257,45.8578175],[-82.3286768,45.8580251],[-82.329349,45.858301],[-82.3303924,45.8585931],[-82.3307056,45.8588999],[-82.331452,45.8593675],[-82.3314765,45.8595068],[-82.331227,45.8596528],[-82.3312343,45.8597172],[-82.331299,45.8597626],[-82.3318997,45.8597024],[-82.3321287,45.8598071],[-82.3325766,45.8600967],[-82.332693,45.8603667],[-82.3326519,45.8608682],[-82.332664,45.8610057],[-82.3324964,45.8612267],[-82.332705,45.8615369],[-82.3328541,45.8616937],[-82.3335359,45.8621159],[-82.3345673,45.8622704],[-82.3367491,45.8628407],[-82.3376933,45.8629828],[-82.3385629,45.8630692],[-82.3389319,45.8630034],[-82.3401107,45.8630518],[-82.3404674,45.8628937],[-82.3408335,45.8630178],[-82.3412812,45.8633979],[-82.3416124,45.863508],[-82.3417894,45.8635238],[-82.3431848,45.8636299],[-82.3447353,45.8634679],[-82.3450494,45.8634578],[-82.345296,45.8635016],[-82.3453182,45.8636043],[-82.3451634,45.8637365],[-82.3435362,45.8647481],[-82.3433457,45.8651832],[-82.3434444,45.86565],[-82.3435736,45.8658312],[-82.3438534,45.8655355],[-82.3437997,45.8650479],[-82.3440419,45.8648375],[-82.3448527,45.8644988],[-82.3450776,45.8642135],[-82.3451554,45.863989],[-82.3453626,45.8638099],[-82.3455794,45.8638223],[-82.3457512,45.8639008],[-82.34593,45.8642249],[-82.3456475,45.8646198],[-82.3455718,45.8650168],[-82.3457203,45.8654905],[-82.3461231,45.8659367],[-82.3464039,45.8663114],[-82.3466167,45.8670116],[-82.3467434,45.8672015],[-82.3468433,45.867125],[-82.3470343,45.866373],[-82.3468883,45.8658905],[-82.346179,45.8654283],[-82.3462447,45.865021],[-82.3460534,45.8647404],[-82.3460039,45.8645976],[-82.3464703,45.864464],[-82.3465282,45.8641733],[-82.3458392,45.8635509],[-82.3456382,45.8631694],[-82.3451425,45.8630452],[-82.345088,45.8629198],[-82.3452853,45.8627302],[-82.3454949,45.8626329],[-82.3474946,45.8621719],[-82.3482781,45.8617479],[-82.3484927,45.8616332],[-82.3487399,45.8614054],[-82.3488115,45.8605732],[-82.3485529,45.8603013],[-82.3485287,45.8599356],[-82.3488598,45.8589678],[-82.348883,45.8586179],[-82.3489174,45.8576446],[-82.3493123,45.8559613],[-82.3497824,45.8551852],[-82.3502297,45.854578],[-82.3506303,45.8536835],[-82.3515752,45.8522498],[-82.3516279,45.852067],[-82.3521174,45.8514929],[-82.3523556,45.8508019],[-82.3522919,45.8502587],[-82.3525045,45.849881],[-82.3525479,45.8493709],[-82.3529701,45.8488055],[-82.3532032,45.8481319],[-82.3548505,45.8466432],[-82.3556819,45.8457369],[-82.356201,45.8452847],[-82.356439,45.844639],[-82.3570132,45.8439954],[-82.357358,45.8434734],[-82.3576901,45.8430854],[-82.3578451,45.8428175],[-82.3582194,45.8424626],[-82.3584643,45.8420624],[-82.3591656,45.8413823],[-82.3592758,45.84109],[-82.3598203,45.8403244],[-82.3608613,45.8391397],[-82.3617671,45.8382439],[-82.3622691,45.8375358],[-82.3624915,45.8371234],[-82.3642186,45.8352202],[-82.3643309,45.8351002],[-82.3651964,45.8343889],[-82.3660748,45.833453],[-82.3666061,45.8330025],[-82.3675719,45.8318526],[-82.3682953,45.8311846],[-82.368944,45.8305062],[-82.3707795,45.8289443],[-82.3713607,45.8283651],[-82.3720392,45.8276727],[-82.372897,45.8269422],[-82.3734309,45.8263472],[-82.3735878,45.8263421],[-82.3737093,45.8266852],[-82.3740276,45.8269291],[-82.3740742,45.8273975],[-82.3734827,45.8282379],[-82.3730497,45.8295624],[-82.3729372,45.8298635],[-82.372253,45.8309807],[-82.3719626,45.8318997],[-82.371942,45.8323314],[-82.3716641,45.8331617],[-82.3714506,45.8342635],[-82.3711403,45.8351616],[-82.371105,45.8354646],[-82.3712042,45.8357049],[-82.3714032,45.8358687],[-82.3715848,45.8360029],[-82.3733176,45.8364639],[-82.3741343,45.8365969],[-82.3746972,45.8366669],[-82.3753473,45.8366135],[-82.3759475,45.8366888],[-82.3761443,45.836635],[-82.3770672,45.8357686],[-82.3776683,45.8352555],[-82.3783298,45.8342618],[-82.3793925,45.8330892],[-82.3801385,45.8321618],[-82.3807121,45.8316538],[-82.381735,45.8303941],[-82.3823466,45.8293029],[-82.3826866,45.8283456],[-82.3826794,45.8281906],[-82.3829264,45.8278722],[-82.3834202,45.8273259],[-82.3846265,45.8265537],[-82.3850324,45.8265383],[-82.3854155,45.8268728],[-82.3852154,45.8275238],[-82.3855087,45.8279453],[-82.3855709,45.8279993],[-82.3858399,45.8279194],[-82.3861191,45.8277142],[-82.386545,45.8276744],[-82.3867868,45.8275092],[-82.3869934,45.8275563],[-82.3872175,45.8275425],[-82.3879102,45.8272505],[-82.3885454,45.8271133],[-82.3888245,45.8269533],[-82.3884824,45.8257101],[-82.3885751,45.8252523],[-82.3888996,45.8246188],[-82.3888629,45.8241156],[-82.3882498,45.8225537],[-82.3874319,45.8215243],[-82.387154,45.820779],[-82.3871452,45.8199086],[-82.3874846,45.8193134],[-82.3884447,45.8180901],[-82.3890655,45.8174168],[-82.3896312,45.8169349],[-82.389761,45.8166634],[-82.3904217,45.8159414],[-82.3909154,45.8152593],[-82.392124,45.8142973],[-82.3922712,45.8140554],[-82.39422,45.8122739],[-82.3942922,45.8122025],[-82.3947384,45.8116858],[-82.3961686,45.8104923],[-82.3966248,45.8098502],[-82.3976562,45.8090987],[-82.3978108,45.8088307],[-82.3977787,45.808627],[-82.3975624,45.8083432],[-82.3967593,45.8075333],[-82.3964385,45.8072528],[-82.3952022,45.8064636],[-82.3949385,45.8063904],[-82.3945078,45.8064476],[-82.3937036,45.8066786],[-82.393258,45.8066975],[-82.3918536,45.8071702],[-82.3914727,45.8072344],[-82.3909425,45.8072324],[-82.3903076,45.8074148],[-82.3897749,45.8073762],[-82.3891724,45.807536],[-82.3886846,45.8074312],[-82.3865641,45.8072419],[-82.3861881,45.8073339],[-82.3849329,45.8078727],[-82.3836008,45.8081382],[-82.3820249,45.8083512],[-82.3807548,45.8087612],[-82.3805059,45.8087715],[-82.3795895,45.8089867],[-82.3780559,45.8091875],[-82.3773212,45.8094463],[-82.3762879,45.8095726],[-82.3750255,45.8098206],[-82.3740945,45.8098617],[-82.3732155,45.8099916],[-82.3717588,45.8102846],[-82.371186,45.8104304],[-82.3702649,45.8104819],[-82.3690496,45.8107907],[-82.3683176,45.810905],[-82.3652024,45.8114716],[-82.3649833,45.8115132],[-82.3646495,45.8116382],[-82.3642132,45.8119843],[-82.3633762,45.8122829],[-82.3632064,45.8126031],[-82.3628947,45.8128761],[-82.3628569,45.8130972],[-82.362525,45.8135756],[-82.3624887,45.8143311],[-82.3622954,45.8152275],[-82.362038,45.8157164],[-82.361509,45.8163844],[-82.3608633,45.8168278],[-82.3602354,45.8171196],[-82.3596475,45.8173176],[-82.359076,45.8179977],[-82.3582935,45.8183765],[-82.3566055,45.8196057],[-82.3549388,45.8213449],[-82.3539246,45.8217635],[-82.3528926,45.8223335],[-82.3513144,45.8233155],[-82.3507188,45.8235394],[-82.3500407,45.8239148],[-82.3497217,45.8240328],[-82.3488987,45.8246413],[-82.3478067,45.825239],[-82.3472631,45.8255971],[-82.3465351,45.8260106],[-82.344363,45.8273888],[-82.3433702,45.8281363],[-82.3414033,45.8290272],[-82.3406032,45.829331],[-82.3397725,45.8299202],[-82.3395855,45.8300297],[-82.3389196,45.8304067],[-82.3385133,45.8305577],[-82.3371683,45.8306397],[-82.3358951,45.8308767],[-82.3346933,45.8314498],[-82.3337465,45.8316332],[-82.3328068,45.8319262],[-82.3323259,45.8320214],[-82.3317274,45.8323445],[-82.3310468,45.8325926],[-82.3303684,45.8329678],[-82.3298644,45.8333223],[-82.3290035,45.8339706],[-82.3281257,45.834363],[-82.3274872,45.8347347],[-82.3272105,45.8347953],[-82.3268346,45.8347513],[-82.3264325,45.8342146],[-82.3250854,45.8331821],[-82.3248694,45.8328981],[-82.3248058,45.8324906],[-82.3248847,45.8318587],[-82.3249948,45.8316569],[-82.3255921,45.8308899],[-82.3257185,45.8301833],[-82.3262087,45.8293831],[-82.3263516,45.8290229],[-82.3262858,45.8284883],[-82.3259602,45.8282703],[-82.3252313,45.8279681],[-82.3247967,45.8275445],[-82.3246649,45.8274625],[-82.3239658,45.827237],[-82.3235633,45.8268813],[-82.3225276,45.8258928],[-82.3222653,45.8252762],[-82.3218741,45.8235817],[-82.3218928,45.8231135],[-82.3220406,45.8227812],[-82.3225072,45.8224214],[-82.3226327,45.8220769],[-82.3226452,45.8211368],[-82.3226908,45.8208444],[-82.3231667,45.8198249],[-82.3231959,45.8191408],[-82.323487,45.8183125],[-82.3234182,45.8179677],[-82.3236293,45.8172368],[-82.3236098,45.8161836],[-82.3243843,45.815161],[-82.3244175,45.8148668],[-82.3249601,45.8139745],[-82.3251681,45.8134786],[-82.3251989,45.8131479],[-82.3259398,45.8116134],[-82.3271841,45.8098603],[-82.3272144,45.8097106],[-82.3271761,45.8091257],[-82.3273515,45.8086977],[-82.3279188,45.8078541],[-82.3294597,45.8058803],[-82.3298518,45.8053742],[-82.330378,45.8049414],[-82.3306782,45.8043499],[-82.3318685,45.8031416],[-82.333031,45.8020742],[-82.333413,45.8016029],[-82.3335032,45.8013802],[-82.3334797,45.8007883],[-82.3334115,45.8002173],[-82.333633,45.8002123],[-82.3338241,45.8004023],[-82.3341179,45.8003713],[-82.3345197,45.799921],[-82.3347477,45.7993103],[-82.3348006,45.799037],[-82.3348297,45.798353],[-82.3354597,45.7971561],[-82.3357295,45.7967595],[-82.3360961,45.796431],[-82.3370333,45.7957846],[-82.3373495,45.7957205],[-82.3377275,45.7958463],[-82.338164,45.7954099],[-82.338706,45.795595],[-82.3389873,45.7955623],[-82.3392665,45.7953572],[-82.3401342,45.7946376],[-82.3403763,45.7943367],[-82.3403446,45.7940425],[-82.340177,45.7933669],[-82.3398695,45.792907],[-82.3396832,45.7927902],[-82.3390756,45.792967],[-82.3386106,45.792829],[-82.3382796,45.7928547],[-82.3374538,45.792711],[-82.3363839,45.7926958],[-82.3354382,45.7927434],[-82.3348163,45.7926556],[-82.3333988,45.7923197],[-82.333043,45.7923419],[-82.3321693,45.792454],[-82.3308828,45.7924715],[-82.3297521,45.7928461],[-82.3266155,45.7933538],[-82.3261674,45.7934264],[-82.3255926,45.7934448],[-82.324244,45.7934082],[-82.3238954,45.7934948],[-82.3234892,45.7936909],[-82.3228767,45.7938398],[-82.3217099,45.7937564],[-82.3208832,45.7939294],[-82.3203082,45.793993],[-82.3201386,45.794132],[-82.320143,45.7943409],[-82.3202472,45.7944733],[-82.3205033,45.7945276],[-82.3205055,45.7946547],[-82.3197586,45.7947755],[-82.3196095,45.7947092],[-82.3195663,45.7941417],[-82.3194674,45.7939013],[-82.3190847,45.7937476],[-82.3187811,45.7937228],[-82.3186568,45.7937052],[-82.3173516,45.7932944],[-82.3168273,45.7930029],[-82.3162615,45.7924973],[-82.3153293,45.7921844],[-82.3145069,45.7917603],[-82.3135436,45.7910174],[-82.3134223,45.7908101],[-82.3131444,45.7905625],[-82.3130705,45.7902804],[-82.3134258,45.7896334],[-82.3135164,45.7892749],[-82.3135062,45.7885038],[-82.3130796,45.787203],[-82.3129773,45.785631],[-82.3130628,45.7844841],[-82.312887,45.7841966],[-82.3126712,45.7839578],[-82.3125199,45.7838097],[-82.312339,45.7827337],[-82.3119351,45.7822057],[-82.311913,45.782103],[-82.3120281,45.7810327],[-82.3119823,45.7805644],[-82.3113372,45.7791693],[-82.3114401,45.7788579],[-82.312248,45.7782115],[-82.3125279,45.7777803],[-82.3124049,45.776459],[-82.3122366,45.7761907],[-82.3110335,45.7750698],[-82.3107107,45.7748883],[-82.3098686,45.7745338],[-82.3091032,45.7743168],[-82.3082338,45.7739221],[-82.3075628,45.7737366],[-82.3064512,45.7736879],[-82.3058995,45.7735374],[-82.305218,45.7735225],[-82.3038992,45.773698],[-82.3026704,45.7737413],[-82.3021011,45.7736517],[-82.3015263,45.7737152],[-82.3012554,45.7736677],[-82.3008907,45.7733626],[-82.3005153,45.7733185],[-82.299826,45.7734201],[-82.2992803,45.7737412],[-82.2991104,45.7739707],[-82.298819,45.7740833],[-82.299087,45.7742752],[-82.2988627,45.7744245],[-82.2985725,45.7741752],[-82.2984903,45.7741907],[-82.2983598,45.7745525],[-82.2974685,45.7755763],[-82.2961226,45.7763817],[-82.2947983,45.7774256],[-82.2939684,45.7778785],[-82.2936995,45.7779581],[-82.2930004,45.778004],[-82.2918608,45.7788114],[-82.2911341,45.7789077],[-82.2909771,45.7790032],[-82.2904247,45.7790336],[-82.2901506,45.7791758],[-82.2900282,45.7793305],[-82.28988,45.7797532],[-82.289519,45.7805533],[-82.2884727,45.7816637],[-82.2876828,45.7827381],[-82.2864341,45.7841005],[-82.285494,45.7854252],[-82.2848982,45.7864547],[-82.2841595,45.7877536],[-82.2837404,45.7880836],[-82.2829273,45.7899969],[-82.2821655,45.7907945],[-82.2809883,45.7928916],[-82.2806502,45.7934776],[-82.280055,45.7942807],[-82.2782241,45.7961313],[-82.2774198,45.796941],[-82.2761166,45.7980422],[-82.2755902,45.7983841],[-82.2748259,45.7990999],[-82.2738229,45.7997908],[-82.2733058,45.800279],[-82.2717364,45.8013152],[-82.2705389,45.802051],[-82.269826,45.8023212],[-82.2691533,45.8024975],[-82.2681327,45.8025338],[-82.2680176,45.8027077],[-82.2675859,45.8029906],[-82.2667237,45.8032396],[-82.2657233,45.8038312],[-82.2649181,45.8041517],[-82.2639468,45.8049104],[-82.2628561,45.8056342],[-82.261784,45.8060707],[-82.2609098,45.806807],[-82.2602035,45.8072774],[-82.2588177,45.8083011],[-82.2584279,45.8084669],[-82.2579586,45.808667],[-82.2571692,45.8090391],[-82.2563212,45.8094117],[-82.2555686,45.8098232],[-82.2552851,45.8100815],[-82.2548186,45.8103455],[-82.2542405,45.8107073],[-82.2535567,45.8115472],[-82.2522941,45.8128008],[-82.2513177,45.8133888],[-82.2500931,45.8140416],[-82.2499627,45.8141179],[-82.2492836,45.814544],[-82.2485844,45.8149828],[-82.2477751,45.8153954],[-82.2473831,45.8156171],[-82.2469519,45.8158681],[-82.2465904,45.8161971],[-82.2447899,45.8179052],[-82.2442549,45.8184128],[-82.2436196,45.8190995],[-82.2431182,45.8195074],[-82.2426461,45.8200383],[-82.2422171,45.8205349],[-82.2413588,45.8211015],[-82.2406895,45.8216061],[-82.2402615,45.82192],[-82.2397062,45.8223779],[-82.2389153,45.8230657],[-82.237945,45.8240685],[-82.2375182,45.8245671],[-82.2369729,45.8249911],[-82.2368939,45.8252232],[-82.237094,45.8256309],[-82.2377928,45.8265123],[-82.2384277,45.827336],[-82.2388523,45.8276138],[-82.2391942,45.8279106],[-82.2394099,45.8280222],[-82.239738,45.8278598],[-82.2398875,45.8280734],[-82.2398625,45.8282009],[-82.2399085,45.8284308],[-82.2407315,45.8287504],[-82.2410976,45.8288932],[-82.2416098,45.828887],[-82.2415395,45.8291389],[-82.2414684,45.8292212],[-82.2412081,45.8292947],[-82.241063,45.8294302],[-82.2409835,45.8295983],[-82.2406954,45.8305004],[-82.2404543,45.8309085],[-82.2400398,45.8312809],[-82.239326,45.8315124],[-82.2386529,45.8315583],[-82.238255,45.8314798],[-82.2380322,45.8315465],[-82.238029,45.831691],[-82.2384379,45.8316606],[-82.2395014,45.8315742],[-82.2399228,45.831462],[-82.2404022,45.8311949],[-82.2407028,45.83083],[-82.2408516,45.8304073],[-82.2410738,45.829971],[-82.2411761,45.8295656],[-82.2413282,45.8294017],[-82.2415263,45.8292934],[-82.241685,45.8291661],[-82.2417174,45.8289806],[-82.2417428,45.8288776],[-82.2420228,45.8290187],[-82.2421591,45.82903],[-82.2426316,45.828921],[-82.2430905,45.8287688],[-82.2434821,45.8286533],[-82.2436634,45.8284224],[-82.24369,45.8282165],[-82.2437781,45.8281418],[-82.2440974,45.8280241],[-82.2443564,45.8280247],[-82.2447991,45.8280122],[-82.2451294,45.8282123],[-82.2451582,45.8285848],[-82.2467315,45.8293043],[-82.2475362,45.82979],[-82.2478572,45.8298447],[-82.2487095,45.8297212],[-82.2495907,45.8298101],[-82.249946,45.8298149],[-82.2505071,45.8298225],[-82.2508987,45.8296788],[-82.2515781,45.8292137],[-82.2518698,45.8291464],[-82.2521542,45.8290147],[-82.2530576,45.8280016],[-82.2544472,45.8262514],[-82.2546996,45.8260517],[-82.2549185,45.8261009],[-82.2550268,45.8263971],[-82.2548431,45.8268511],[-82.2542443,45.8277082],[-82.2542172,45.8282025],[-82.2544094,45.8287008],[-82.2547259,45.8292168],[-82.2560536,45.8303112],[-82.2572905,45.8305139],[-82.2577545,45.830924],[-82.2582712,45.8312419],[-82.2585015,45.8315645],[-82.2589861,45.8318144],[-82.2596026,45.832681],[-82.2599205,45.8335051],[-82.2606748,45.833585],[-82.2610234,45.8335892],[-82.2622517,45.8340895],[-82.2636012,45.8342176],[-82.2640167,45.8343037],[-82.2650007,45.8342621],[-82.2660686,45.8344227],[-82.2665668,45.8344028],[-82.2678484,45.8346751],[-82.2693174,45.8347929],[-82.2700911,45.8350294],[-82.2710666,45.8352402],[-82.2724522,45.8356902],[-82.2736145,45.8365525],[-82.2742694,45.8372432],[-82.2747537,45.8376288],[-82.2756191,45.837996],[-82.2759745,45.8382004],[-82.2762922,45.83849],[-82.2763911,45.8386852],[-82.2765,45.8388908],[-82.2765706,45.8393175],[-82.2763603,45.8395957],[-82.276001,45.8397622],[-82.2757293,45.8398052],[-82.2752985,45.8397713],[-82.275069,45.8398475],[-82.2745526,45.8400642],[-82.2741838,45.8400844],[-82.2739665,45.8402528],[-82.273667,45.8403916],[-82.2736541,45.8405256],[-82.2734628,45.8416761],[-82.2735294,45.8418486],[-82.2736732,45.8420229],[-82.2739022,45.8420826],[-82.2741558,45.842191],[-82.2745976,45.842634],[-82.2752195,45.842858],[-82.2753722,45.8433145],[-82.2755091,45.8433339],[-82.275938,45.8432407],[-82.2760675,45.8432409],[-82.2762732,45.8435146],[-82.2767508,45.8437001],[-82.2768001,45.8438429],[-82.2760011,45.8449888],[-82.2748344,45.8465084],[-82.2747704,45.8469522],[-82.2743411,45.8478063],[-82.2741469,45.848431],[-82.2740933,45.8487495],[-82.2742365,45.849105],[-82.2745608,45.8496401],[-82.2752141,45.8501584],[-82.2760046,45.8506509],[-82.2765063,45.8510662],[-82.2771677,45.8514226],[-82.277551,45.8515313],[-82.2780563,45.8516663],[-82.2786371,45.8515855],[-82.2787963,45.8516624],[-82.2787147,45.8521672],[-82.2783578,45.852325],[-82.2779045,45.8529492],[-82.2758947,45.8546484],[-82.2756795,45.8548987],[-82.2750046,45.8554372],[-82.274712,45.8557309],[-82.2742042,45.8562297],[-82.2731685,45.8572968],[-82.2723895,45.8583279],[-82.2718768,45.8587987],[-82.2717761,45.8590562],[-82.2717372,45.8594584],[-82.2718038,45.8596309],[-82.2724549,45.8601127],[-82.2728765,45.8606254],[-82.2730345,45.8610192],[-82.2728461,45.8614002],[-82.2729862,45.8619002],[-82.2736944,45.8624535],[-82.274187,45.8626773],[-82.2741941,45.862787],[-82.2741017,45.8628373],[-82.2720356,45.8634777],[-82.2722699,45.8637054],[-82.2726128,45.8635525],[-82.2731754,45.8632587],[-82.2746195,45.8629741],[-82.2748287,45.8630128],[-82.2749594,45.8640369],[-82.2748133,45.864451],[-82.2744184,45.8647393],[-82.2742322,45.8652021],[-82.2737914,45.8657376],[-82.2732125,45.8665706],[-82.2724389,45.8674484],[-82.2719818,45.8688803],[-82.2711873,45.8699767],[-82.2696299,45.8718279],[-82.2686858,45.8728411],[-82.2682074,45.8735842],[-82.2676431,45.8744061],[-82.2670977,45.874947],[-82.2668597,45.875183],[-82.2666564,45.8755256],[-82.2660005,45.8762208],[-82.2657748,45.8765513],[-82.2655239,45.8775222],[-82.2654252,45.8779332],[-82.2657218,45.8785641],[-82.2656537,45.8793789],[-82.2654018,45.8800228],[-82.2650913,45.8809572],[-82.2650422,45.8820194],[-82.2651135,45.8822651],[-82.2650595,45.8826742],[-82.2648122,45.8833911],[-82.2647744,45.8841015],[-82.2648727,45.8844779],[-82.2650756,45.8848509],[-82.2657566,45.8854095],[-82.2658685,45.8854707],[-82.2674702,45.8864017],[-82.2686821,45.8865036],[-82.2690067,45.8864136],[-82.2690816,45.886379],[-82.2692362,45.8861057],[-82.2694183,45.8860397],[-82.2698191,45.8858945],[-82.270081,45.8858863],[-82.2704996,45.8859637],[-82.2706262,45.8861085],[-82.2709192,45.8870651],[-82.2711803,45.887238],[-82.2726009,45.8874392],[-82.2733929,45.8877054],[-82.2737308,45.888016],[-82.2740581,45.8884972],[-82.2742137,45.8888998],[-82.2741868,45.8893943],[-82.2740482,45.8897824],[-82.2738857,45.8901123],[-82.2737462,45.8902389],[-82.2733643,45.8904115],[-82.2730302,45.8905624]],[[-82.3188654,45.7947308],[-82.318935,45.7947587],[-82.3186459,45.794908],[-82.3180238,45.7949107],[-82.3179666,45.7948845],[-82.3180017,45.7948079],[-82.3181986,45.794709],[-82.3188654,45.7947308]],[[-82.3119483,45.8132305],[-82.3120079,45.8132646],[-82.3118775,45.8134619],[-82.3117302,45.8136202],[-82.3115535,45.8137568],[-82.3110782,45.8140601],[-82.3109938,45.8139979],[-82.3114027,45.8137476],[-82.3118255,45.8134088],[-82.3119483,45.8132305]],[[-82.2790116,45.8634331],[-82.2790689,45.8634594],[-82.2790106,45.8637048],[-82.2780899,45.8653137],[-82.277557,45.8658543],[-82.2774949,45.8658002],[-82.2773881,45.8650513],[-82.2782566,45.8640691],[-82.2783372,45.8638359],[-82.2787294,45.8636015],[-82.2789546,45.8633616],[-82.2790116,45.8634331]],[[-82.3107274,45.8148622],[-82.3107491,45.8151008],[-82.3105962,45.8154505],[-82.3098723,45.8160726],[-82.3091165,45.8173876],[-82.3086347,45.8177994],[-82.3079377,45.8185522],[-82.3077031,45.8187364],[-82.3076034,45.8187676],[-82.3075168,45.8186195],[-82.3075299,45.8183949],[-82.3079917,45.8180074],[-82.3083573,45.8173255],[-82.309169,45.8164894],[-82.3100964,45.815253],[-82.3104415,45.8147313],[-82.3106432,45.8147054],[-82.3107274,45.8148622]],[[-82.3102832,45.80615],[-82.3103105,45.806996],[-82.3102096,45.8074345],[-82.3099463,45.8080765],[-82.3092534,45.8092192],[-82.3078982,45.8111738],[-82.3076294,45.811969],[-82.3070126,45.8125791],[-82.3066404,45.8130155],[-82.3065548,45.8133113],[-82.3062172,45.8138069],[-82.3060215,45.8143045],[-82.3056015,45.8148609],[-82.3052636,45.8154471],[-82.3045694,45.8161006],[-82.3041513,45.8168294],[-82.3037344,45.817196],[-82.3035142,45.8175543],[-82.3030025,45.8187408],[-82.3021022,45.8199719],[-82.3016678,45.8203542],[-82.299986,45.8214658],[-82.2996623,45.8214652],[-82.2995977,45.8214199],[-82.2995955,45.8213381],[-82.3002455,45.8205244],[-82.3007394,45.8194893],[-82.3015335,45.8187594],[-82.3018541,45.8181436],[-82.3023715,45.8175195],[-82.3024276,45.8171017],[-82.3026453,45.8167522],[-82.3035956,45.8154375],[-82.3043162,45.8142897],[-82.3043851,45.813738],[-82.3045859,45.813223],[-82.304635,45.8126503],[-82.3049261,45.8119127],[-82.3057618,45.8097397],[-82.3064594,45.8087606],[-82.307418,45.8078638],[-82.308243,45.8075187],[-82.3086778,45.8069553],[-82.3091144,45.8066095],[-82.3095166,45.8061593],[-82.3098558,45.8059265],[-82.31008,45.8058677],[-82.3102389,45.8059897],[-82.3102832,45.80615]]]}}]}