{"type":"FeatureCollection","name":"Lake Kagawong bathymetry contours","metadata":{"source":"Ontario Ministry of Natural Resources — Land Information Ontario (LIO) Open Data, Bathymetry Line layer","serviceUrl":"https://ws.lioservices.lrc.gov.on.ca/arcgis2/rest/services/LIO_OPEN_DATA/LIO_Open01/MapServer/30","datasetPage":"https://geohub.lio.gov.on.ca/datasets/mnrf::bathymetry-line","license":"Open Government Licence - Ontario (https://www.ontario.ca/page/open-government-licence-ontario)","retrievedOn":"2026-08-19","crs":"EPSG:4326 (WGS84)","depthAttribute":"DEPTH","depthUnits":"metres, negative = depth below surface (contours digitized from a survey in 20 ft intervals: -6.1, -12.2, -18.3, -24.4 m, plus deep-basin contours at -31.1, -32, -33.5 m)","notes":"18 contour lines, filtered to features falling entirely within the Lake Kagawong shoreline polygon. Not for navigation."},"features":[{"type":"Feature","id":1418145,"geometry":{"type":"LineString","coordinates":[[-82.2918655240975,45.796728900356214],[-82.2914593240601,45.79756700051313],[-82.29172562419733,45.79804030057503],[-82.2929086245345,45.79766970045154],[-82.29382402472741,45.79676630025663],[-82.2950741250006,45.79562090000472],[-82.29573002509125,45.79454179979548],[-82.29553502491108,45.79347239963374],[-82.29349162425419,45.79343599973806],[-82.29266002408134,45.794278899918694],[-82.29242262409107,45.79505560005665],[-82.29218932412182,45.796010800223115],[-82.2918655240975,45.796728900356214]]},"properties":{"OGF_ID":129690540,"DEPTH":-32,"SURVEY_METHOD":"Transect","SURVEY_DATE":83116800000,"CREATION_METHODOLOGY":"Hand Digitized","LOCATION_ACCURACY":"Within 10 metres","GEOMETRY_UPDATE_DATETIME":1614014338000,"EFFECTIVE_DATETIME":1614008592000,"SYSTEM_DATETIME":1614031016000,"OBJECTID":1418145,"SHAPE.LEN":0}},{"type":"Feature","id":1232433,"geometry":{"type":"LineString","coordinates":[[-82.311461329571,45.789587498148926],[-82.31151322959147,45.78962259815178],[-82.31108312935221,45.788698798026154],[-82.31080692916593,45.787808897897676],[-82.31063202900789,45.78688219775784],[-82.31020362877712,45.786029797643586],[-82.31002782861488,45.78506729749804],[-82.3097007284124,45.78417799737235],[-82.30942452822615,45.78328809724387],[-82.30919952805617,45.78239769711253],[-82.30897272787773,45.78143579696978],[-82.30864562767529,45.78054649684414],[-82.30826742745657,45.779657696721316],[-82.30804242728664,45.77876729658997],[-82.3073597269789,45.77795349649565],[-82.30507412606289,45.776264996346754],[-82.30384252563957,45.77599329636941],[-82.30256332521684,45.77586499641767],[-82.30123562479048,45.775844396485944],[-82.29990862436826,45.775859496559896],[-82.2986929240247,45.77626629669101],[-82.2975290237015,45.77670809682494],[-82.29616682334283,45.77740229701025],[-82.29526302312603,45.778055597164276],[-82.29446372295429,45.77881479732973],[-82.29356072274162,45.77950369748943],[-82.29245352246403,45.78019499766051],[-82.29160242227188,45.78091899782311],[-82.29111172221013,45.78178189798857],[-82.29046632209128,45.78257509815122],[-82.28992382200903,45.78340279831388],[-82.28938132192687,45.78423049847651],[-82.28889142186932,45.78512909864769],[-82.28834892178715,45.7859567988103],[-82.28780712170914,45.786820298978654],[-82.28726452162697,45.78764799914126],[-82.2865679214918,45.78844169930672],[-82.28597432139337,45.78926999947216],[-82.28532952127864,45.79009879964048],[-82.28463292114346,45.7908924998059],[-82.28398812102876,45.79172139997424],[-82.2832404208773,45.792515700142516],[-82.28243992070124,45.793239100302195],[-82.28163952052516,45.79396250046191],[-82.2809938204062,45.794755600624505],[-82.28040002030771,45.79558390078993],[-82.27970322017246,45.79637760095538],[-82.2782659199235,45.79828690134042],[-82.27762011980455,45.79908000150298],[-82.2769225196651,45.79983800166271],[-82.27607001946848,45.800526201819565],[-82.2750618192105,45.80110900196774],[-82.27405371895257,45.80169180211596],[-82.27304631869879,45.80231030226988],[-82.27203811844078,45.80289310241811],[-82.27092781815027,45.803477002571995],[-82.26997141791269,45.8040949027231],[-82.26876541762316,45.804965602928334],[-82.26786161741019,45.80565440308802],[-82.26674961711127,45.8061668032305],[-82.25874301511293,45.81125630448171],[-82.25783901489986,45.81194500464135],[-82.25698691470721,45.81266880480385],[-82.25629041457594,45.81349810497491],[-82.25590111454646,45.81435970513466],[-82.25581991462295,45.81528930528872],[-82.25599391478075,45.8162162054286],[-82.25616891494278,45.817178705574186],[-82.25681231529732,45.81852910575699],[-82.25709741553382,45.81984760595389],[-82.25780801598856,45.82191160624793],[-82.25834461628554,45.82304880640209],[-82.25991161695397,45.82456760656213],[-82.26074501729822,45.82527280663071],[-82.2614771176141,45.82601490671071],[-82.26236081797039,45.82668380677074],[-82.26314411830263,45.82742530684787],[-82.26412841868307,45.828021706890794],[-82.26516461908408,45.82865320693657],[-82.26589681940001,45.8293953070165],[-82.26683091976844,45.830027907067965],[-82.26791512016895,45.83051600708805],[-82.26900092057782,45.83107550711953],[-82.27024322105231,45.8317761071653],[-82.27097552136831,45.83251810724522],[-82.27216032179292,45.832933607248144],[-82.2731448221735,45.83352990729104],[-82.27417962256617,45.834089907325335],[-82.27511392293468,45.834722407376724],[-82.2761488233274,45.835282407410986],[-82.27723402373213,45.83580610743669],[-82.27816912410488,45.83647440749375],[-82.27915382448552,45.837070607536546],[-82.28018952488243,45.837666307576534],[-82.28102422523114,45.838407107650646],[-82.28186142559241,45.839255007741926],[-82.28279672596524,45.83992320779888],[-82.28337762624103,45.8407383078987],[-82.28370472644386,45.841627608024126],[-82.28398072663043,45.84251760815238],[-82.28410512677661,45.843480608300595],[-82.28407542686976,45.84440970845166],[-82.28378932687737,45.84530600861123],[-82.28345222686868,45.84620280877369],[-82.28306312683956,45.847064508933265],[-82.28287922687969,45.8479596090872],[-82.28305392703797,45.84888640922685],[-82.28322852719623,45.849813209366474],[-82.28335212733828,45.85074060950893],[-82.28342542746823,45.85170420965995],[-82.28349872759821,45.85266790981096],[-82.28357112772399,45.853595809956246],[-82.28318202769483,45.85445751011586],[-82.28294702771878,45.85535321027259],[-82.28213152771582,45.8576842106914],[-82.28194762775597,45.85857931084529],[-82.28191862785343,45.85954411100194],[-82.2813241277549,45.86037241116723],[-82.2810388277668,45.861304311332475],[-82.28070232776234,45.86223681150054],[-82.28046812779047,45.86316821166293],[-82.27992552771249,45.86403161183107],[-82.27963922772007,45.86492781199059],[-82.27909662764206,45.86579121215866],[-82.27839902750681,45.866584912323944],[-82.27714312721345,45.86756341254902],[-82.27628962701665,45.86825171270579],[-82.2756438269018,45.86908051287385],[-82.27449742667888,45.87037921314451],[-82.2737988265393,45.87113721330409],[-82.27315382642873,45.87200171347785],[-82.2725590263301,45.87282991364307],[-82.27186042619057,45.87358781380262],[-82.2713176261125,45.87445121397073],[-82.27087702606703,45.8753134141331],[-82.27059052607456,45.87620961429261],[-82.27025382607009,45.87714211446063],[-82.27027502617965,45.87807061460869],[-82.27029612628914,45.87899911475676],[-82.27052102645969,45.87988961488773],[-82.27155752685718,45.88048541492748],[-82.27283992728555,45.88064971488462],[-82.27411332766755,45.880421214779126],[-82.2753331280206,45.88008611465943],[-82.27650012834893,45.879680114531155],[-82.27766712867725,45.879274114402875],[-82.27872942896032,45.87876221426324],[-82.27973892921867,45.878179314115016],[-82.28059252941543,45.87749101395832],[-82.28185262972991,45.876691113761694],[-82.28270542992244,45.8759671135993],[-82.2835589301192,45.875278813442556],[-82.2844636303323,45.874589913282975],[-82.28521233048377,45.87379561311488],[-82.28591083062325,45.873037612955365],[-82.28635123066861,45.87217531279301],[-82.28710073082429,45.871416712630555],[-82.2874899308534,45.87055511247105],[-82.28767383081315,45.869659912317246],[-82.28780573075234,45.868729712160636],[-82.28778423064269,45.86780121201257],[-82.28776283053304,45.866872711864445],[-82.28758803037461,45.865945911724914],[-82.287208730151,45.865021411596786],[-82.28698282997628,45.864095211460125],[-82.2867578298058,45.863204711329175],[-82.28658302964733,45.86227791118961],[-82.28635792947685,45.86138741105859],[-82.28623432933476,45.860460110916186],[-82.28645202922227,45.858814410639845],[-82.28673812921465,45.85791821048032],[-82.28692192917443,45.85702311032643],[-82.28710572913418,45.8561280101726],[-82.28708102900775,45.85505661000167],[-82.28705962889825,45.85412810985353],[-82.28678352871155,45.85323820972535],[-82.28625262844767,45.8523868096171],[-82.2856204281555,45.851572409520244],[-82.28498832786333,45.85075790942339],[-82.28466022765616,45.8498328092923],[-82.28458782753042,45.848904909147016],[-82.28482272750651,45.84800920899026],[-82.28515992751518,45.847112408827826],[-82.28554892754434,45.84625070866819],[-82.28604022760602,45.84538780850292],[-82.28642922763518,45.84452610834327],[-82.2868182276643,45.8436644081837],[-82.28761192780254,45.84261960797279],[-82.28867342808536,45.842107507833084],[-82.2897349283681,45.84159540769343],[-82.29084742866708,45.84108280755093],[-82.29211982904857,45.84085410744543],[-82.2933923294301,45.840625307339906],[-82.29466222979889,45.84028950721736],[-82.29604013022974,45.84020240712894],[-82.29736943065697,45.8402230070605],[-82.29870113109678,45.84035080700912],[-82.30003213153238,45.84044280695205],[-82.30136563198066,45.84064200691208],[-82.30254993240119,45.84102140690913],[-82.30398723289044,45.841290806874866],[-82.30512223330312,45.841742206886146],[-82.30630663372366,45.84212160688319],[-82.3074910341442,45.842501006880276],[-82.30877513458465,45.842772006854496],[-82.3099604350094,45.84318710685723],[-82.31124283544135,45.843386706820006],[-82.31257643588965,45.84358580678002],[-82.31396023634996,45.843748506731416],[-82.31529383679822,45.84394740669133],[-82.31662573723808,45.84407500663991],[-82.31790653766166,45.8442031065913],[-82.31923513808457,45.84418780651701],[-82.32056453851177,45.84420810644846],[-82.32189393893889,45.84422850637989],[-82.32460463981367,45.84430420624557],[-82.32593404024078,45.84432450617702],[-82.32726344066795,45.84434480610837],[-82.32864044109441,45.84422170601417],[-82.32991454148413,45.84406390591997],[-82.33118684186539,45.843834805814325],[-82.33245914224666,45.84360560570867],[-82.33373314263635,45.84344790561445],[-82.33511194307125,45.84339610553158],[-82.33644044349408,45.843380505457276],[-82.33776894391694,45.84336500538294],[-82.33914764435183,45.843313105300034],[-82.34047274475773,45.84315470520294],[-82.34200134522447,45.842958105088684],[-82.34333244565994,45.843049705031405],[-82.34451794608472,45.84346440503399],[-82.34580484653776,45.84384210502511],[-82.34703804696187,45.84411340500205],[-82.34827214739025,45.84442030498463],[-82.34965354783782,45.84447550491875],[-82.35097944824788,45.84435260482733],[-82.35214514857533,45.84394590469885],[-82.35320784886603,45.843504704570485],[-82.3533108489028,45.84353920457043],[-82.35312814894357,45.84443440472423],[-82.35314544902816,45.8451486048381],[-82.35396214928414,45.845103204786646],[-82.35396304928835,45.84513890479229],[-82.35481264947165,45.8443429046184],[-82.35566394966345,45.8436184044559],[-82.35646404983893,45.8428945042962],[-82.35721224999398,45.84213550413369],[-82.3580635501857,45.84141090397117],[-82.35850255023048,45.84054840380873],[-82.35863315016917,45.83961810365211],[-82.35958915040617,45.83899940350096],[-82.36018225050384,45.83817080333562],[-82.36103425069979,45.83748190317877],[-82.36208975095653,45.83675490300479],[-82.36268275105427,45.83592620283946],[-82.36327575115196,45.83509760267411],[-82.36402295130266,45.83430280250591],[-82.36471975144131,45.8335443023463],[-82.36536385155526,45.83271500217806],[-82.36600875167342,45.831921402015574],[-82.36670555181206,45.83116290185593],[-82.36755735200794,45.83047400169908],[-82.36856415226099,45.829854701544974],[-82.37053275278046,45.8288666012796],[-82.37117755289864,45.82807300111708],[-82.37182145301253,45.82724370094886],[-82.37241425311015,45.82641500078353],[-82.37331785332637,45.82576110062948],[-82.37431835354977,45.82489180043552],[-82.37506525370038,45.82409690026732],[-82.3757618538389,45.82333840010762],[-82.37635455393652,45.82250969994227],[-82.37710215409125,45.821750499779704],[-82.37753195432285,45.82260259989352],[-82.37734965436371,45.82349790004737],[-82.37711625438835,45.82439370020408],[-82.37688375441718,45.825325300366494],[-82.3768044544948,45.82625500052026],[-82.37784015488751,45.826814100554174],[-82.37911365527678,45.82665580045978],[-82.38022595557915,45.82617800032276],[-82.38112865579113,45.82548840016297],[-82.38198015598684,45.82479940000611],[-82.38314525631388,45.82439229987759],[-82.38433065673838,45.824806599880034],[-82.38565875716081,45.82479049980559],[-82.3863032572788,45.823996799643076],[-82.38628015716861,45.823068399495035],[-82.38625625705424,45.82210419934127],[-82.38623325694411,45.82117569919319],[-82.38621015683393,45.82024719904511],[-82.38673035681352,45.818561998745864],[-82.38727175689479,45.817733798583355],[-82.38796805703315,45.81697519842368],[-82.38856055713069,45.81614639825834],[-82.38925685726906,45.81538779809859],[-82.38995315740748,45.81462909793888],[-82.39070055756216,45.81386989777629],[-82.39155185775772,45.813180797619395],[-82.39240215794906,45.81245599745679],[-82.39330535816512,45.8118019973027],[-82.39420845838114,45.81114799714864],[-82.39485185849482,45.81031859698039],[-82.39498095842912,45.80935249681796],[-82.39384415800838,45.80883059679555],[-82.39256135757279,45.8085960968272],[-82.3912328571464,45.808576596895996],[-82.38990695673272,45.80866419698181],[-82.38863655635639,45.80892969709327],[-82.38731335595537,45.809124397196186],[-82.38598835554586,45.809247597287666],[-82.38466325513636,45.80937089737923],[-82.38339285476002,45.80963629749065],[-82.38109495402927,45.80966409761942],[-82.37977345363664,45.80993009773371],[-82.37850125325178,45.8101240978337],[-82.37712505282597,45.8102478979281],[-82.37574895240014,45.81037159802239],[-82.37447845202375,45.81063689813382],[-82.3732079516473,45.81090229824523],[-82.37117325103573,45.811248198410944],[-82.36990535067196,45.81162059853942],[-82.36868845032436,45.81199239866503],[-82.36736594992745,45.81222259877355],[-82.36609794956358,45.81259499890205],[-82.36493304923651,45.81300189903053],[-82.36338474890205,45.814449199347116],[-82.36275574885997,45.81588559961223],[-82.36186164869008,45.81693219982895],[-82.36046124837893,45.818163400102755],[-82.35758824763876,45.81976930051646],[-82.35569074723263,45.82157790091001],[-82.35548824717611,45.821651800932806],[-82.35448054691874,45.82223530108115],[-82.35342004663664,45.822747901221],[-82.3520591462866,45.823514201417844],[-82.3504929458673,45.824247201620395],[-82.34938044556472,45.824724701757354],[-82.34716824502279,45.82621540211679],[-82.34626434480633,45.826869002270726],[-82.34530844456931,45.827487502421924],[-82.34424944429556,45.82807160257309],[-82.34318874401336,45.8285841027129],[-82.3421288437353,45.82913240285838],[-82.34106984346154,45.829716403009556],[-82.34000904317926,45.83022890314933],[-82.33889724288079,45.83074210329199],[-82.33783644259852,45.83125460343176],[-82.33667344228368,45.831768303577256],[-82.33556064198092,45.83224570371414],[-82.33378794148787,45.83290940391674],[-82.33074654063054,45.83394510424767],[-82.32963374032774,45.834422404384576],[-82.32841603997964,45.83479380451013],[-82.32719673962315,45.83509370462427],[-82.32581733918414,45.83510980470137],[-82.32468233877148,45.834658504690104],[-82.32384793842694,45.83395380462188],[-82.32331673816304,45.833102604513655],[-82.32293803794377,45.8322140043912],[-82.32276273778525,45.83128720425156],[-82.3225866376226,45.830324804106255],[-82.32236033744792,45.82939870396949],[-82.3219313372166,45.82854630385554],[-82.32145133696909,45.82769450374441],[-82.3212482366715,45.82558930341666],[-82.32091723645163,45.8245572032685],[-82.32099743637455,45.82362750311454],[-82.3210776362975,45.82269790296068],[-82.32136293628957,45.82180150280099],[-82.32159723626555,45.820905802644184],[-82.32183143624137,45.82001000248742],[-82.32211673623355,45.81911370232775],[-82.32235103620945,45.818217902170964],[-82.32253413616908,45.81732280201699],[-82.32271733612873,45.81642760186303],[-82.32300263612086,45.81553130170339],[-82.32344113616179,45.81463310153516],[-82.32372633615394,45.81373680137546],[-82.32437083626826,45.812907701207266],[-82.3250084363489,45.811793000993376],[-82.32549883641033,45.81093000082795],[-82.32588693643909,45.810068100668296],[-82.3261722364313,45.80917180050858],[-82.32656033646015,45.8083100003489],[-82.32715363655822,45.80748150018347],[-82.32779883667675,45.806688100020956],[-82.32844393679524,45.80589469985837],[-82.32914013693,45.805100699692964],[-82.32978523704848,45.80430739953043],[-82.33037843714655,45.803478899365004],[-82.3310754372855,45.80272059920525],[-82.33166763737925,45.80185639903418],[-82.33226083747732,45.801027798868695],[-82.33259693748566,45.80013089870615],[-82.33308703754699,45.799267798540725],[-82.33260713729966,45.79841609842948],[-82.33167193692722,45.79774829837248],[-82.33039133650013,45.79758459841525],[-82.32920683607595,45.7971697984124],[-82.32852443577217,45.796391798323995],[-82.3274396353679,45.79586859829827],[-82.3263054349558,45.79541739828685],[-82.32502403452447,45.79521789832389],[-82.32374263409311,45.79501849836096],[-82.3224144336666,45.79499809842932],[-82.32119763331882,45.79536939855484],[-82.31992633293798,45.79559839866033],[-82.31859983251984,45.79564949874014],[-82.3166538318731,45.795421898808506],[-82.31547043145324,45.79504259881125],[-82.31453633108508,45.79441029875986],[-82.31380313076512,45.79363289867421],[-82.3130708304494,45.792891098594225],[-82.31289583029131,45.791964398454375],[-82.31241623004418,45.79111259834306],[-82.311461329571,45.789587498148926]]},"properties":{"OGF_ID":129690526,"DEPTH":-6.099999904632568,"SURVEY_METHOD":"Transect","SURVEY_DATE":83116800000,"CREATION_METHODOLOGY":"Hand Digitized","LOCATION_ACCURACY":"Within 10 metres","GEOMETRY_UPDATE_DATETIME":1614014337000,"EFFECTIVE_DATETIME":1614008590000,"SYSTEM_DATETIME":1614031016000,"OBJECTID":1232433,"SHAPE.LEN":0}},{"type":"Feature","id":1276081,"geometry":{"type":"LineString","coordinates":[[-82.31460943145105,45.79751729925631],[-82.31234203063106,45.79665029923901],[-82.31057102990209,45.7951702990962],[-82.30999012962668,45.7943553989963],[-82.30971402944036,45.79346549886787],[-82.30928552920948,45.792613098753705],[-82.30875492894607,45.791761798645176],[-82.3083264287152,45.79090939853099],[-82.30789802848443,45.790056998416745],[-82.30746962825366,45.78920459830254],[-82.30648552787353,45.788608598259664],[-82.30516162746802,45.7887665983565],[-82.30410212718994,45.78931449850187],[-82.30293882687096,45.7897921986416],[-82.30166762649004,45.790020998747025],[-82.30034032606763,45.79003609882103],[-82.29906082564472,45.789907798869386],[-82.29782822521706,45.789600298886285],[-82.29679402482496,45.78904049885185],[-82.29575892442864,45.78844499881175],[-82.29472482403662,45.78788519877728],[-82.29286732335102,45.787048898742675],[-82.29158532291548,45.78681329877386],[-82.28961272237427,45.78762149901042],[-82.287552621876,45.78907359935544],[-82.28595282152814,45.79055619968061],[-82.28435692120124,45.79221740003428],[-82.28371052107812,45.79297480019115],[-82.28316782099584,45.79380250035377],[-82.28257402089736,45.7946307005192],[-82.28177352072129,45.795354200678915],[-82.28117972062276,45.796182400844344],[-82.28053482050798,45.797011201012594],[-82.2797862203524,45.79776980117519],[-82.27903752019668,45.798528301337704],[-82.27823692002056,45.79925170149741],[-82.27743881985703,45.80008230167421],[-82.27679381974221,45.800911101842516],[-82.27619981964367,45.801739302007924],[-82.27539921946753,45.80246270216764],[-82.27374101906952,45.80366000244988],[-82.2731981189872,45.80448760261242],[-82.27255211886815,45.805280702775],[-82.27190701875328,45.806109502943244],[-82.27105601856505,45.806869103111495],[-82.27030791841347,45.8076633032797],[-82.26966191829439,45.80845640344228],[-82.26896401815489,45.809214303601955],[-82.2683180180358,45.810007303764465],[-82.26787781799013,45.81086950392709],[-82.26708991788104,45.81216430417805],[-82.26644461776608,45.812993004346296],[-82.26590141768371,45.81382060450882],[-82.26535831760134,45.81464820467139],[-82.26451511745495,45.81576490489669],[-82.26412671742972,45.81666230506211],[-82.26414771753879,45.81759080521048],[-82.2640666176154,45.818520505364575],[-82.26403651770822,45.819449605515736],[-82.26400651780109,45.82037860566697],[-82.2642821179873,45.82126860579537],[-82.26455771817358,45.822158605923825],[-82.26508791843699,45.82301010603233],[-82.26651161910708,45.824959006269296],[-82.26709211938258,45.82577410636917],[-82.26777401968647,45.826552506457695],[-82.2687089200591,45.82722080651488],[-82.2709923209597,45.82876710664058],[-82.27524242260886,45.83139890683493],[-82.27617832298577,45.832102906897724],[-82.27721312337842,45.83266290693201],[-82.27829742377892,45.833150806952034],[-82.27943282419565,45.833638206969205],[-82.28051882460464,45.83419760700066],[-82.28150342498522,45.834793807043425],[-82.28366972577369,45.83566250706632],[-82.2848547261984,45.8360779070692],[-82.28608992663513,45.836456907063535],[-82.2873730270713,45.836692507032176],[-82.2886536274949,45.83682100698369],[-82.28998442793049,45.836913106926694],[-82.29131362835766,45.83693380685827],[-82.29258762874755,45.836776506764195],[-82.29411462920609,45.83650920663879],[-82.29533162955018,45.83610250650767],[-82.2964959298696,45.835624906367954],[-82.29766023018895,45.83514730622827],[-82.2987215304716,45.83463510608855],[-82.29978193075003,45.834087205943135],[-82.30078953100372,45.83346850578924],[-82.30179543124896,45.832778305623876],[-82.30285503152317,45.832194705472745],[-82.30375953174007,45.83154140531878],[-82.3044572318793,45.830783305159144],[-82.30515493201857,45.830025204999515],[-82.30585253215773,45.829267004839856],[-82.30644633225599,45.82843870467449],[-82.3070912323705,45.82760970450634],[-82.3074798323995,45.826747904346625],[-82.30786833242844,45.82588620418702],[-82.30850643250925,45.824771503973174],[-82.30889503253825,45.82390970381351],[-82.3094887326365,45.82308130364815],[-82.31070623298457,45.82271010352268],[-82.31093153315496,45.82360060365386],[-82.31054293312596,45.82446240381349],[-82.31030853314998,45.82535810397029],[-82.31017703321072,45.82628840412708],[-82.31009673328779,45.82721810428104],[-82.31011933340152,45.828182304434954],[-82.31054893363697,45.82907040455465],[-82.31097853387242,45.82995850467432],[-82.31176243420482,45.8306996047512],[-82.31279763459752,45.83125930478534],[-82.31403203502991,45.83160230477384],[-82.3153628354654,45.831694204716776],[-82.31669273589665,45.831750304653944],[-82.31775383617914,45.8312380045142],[-82.31993153654453,45.828247903915546],[-82.32037093658964,45.82738550375306],[-82.32019573643123,45.82645880361343],[-82.32012273630538,45.82553090346804],[-82.3204592363138,45.82463400330557],[-82.32048743621623,45.82366920314878],[-82.32031223605783,45.82274240300917],[-82.32059683604581,45.82181040284379],[-82.3209724360114,45.820412902598626],[-82.3212067359873,45.819517102441786],[-82.32138903594274,45.818586302282164],[-82.32167433593492,45.81768990212251],[-82.32190863591083,45.816794201965706],[-82.32224503591922,45.81589720180315],[-82.32253033591142,45.81500090164353],[-82.32286663591978,45.81410400148097],[-82.323356235977,45.81320530130989],[-82.32384653603832,45.81234230114451],[-82.32443993613644,45.81151380097913],[-82.32498223621829,45.81068590081657],[-82.3256674362983,45.80942770057705],[-82.32605563632714,45.808565900417356],[-82.32639103633129,45.807633200249086],[-82.32693323641315,45.80680530008654],[-82.32806953659725,45.805184599764274],[-82.32871463671573,45.80439129960173],[-82.32935893683008,45.80356219943343],[-82.32995203692809,45.80273369926808],[-82.33054523702612,45.801905199102634],[-82.3310873371079,45.80107719894005],[-82.33137243710004,45.80018089878031],[-82.33084143683645,45.79932969867193],[-82.32960753640447,45.79898689868333],[-82.32827673596529,45.79885949873471],[-82.32699603553812,45.798695798777516],[-82.32571373510257,45.79846059880883],[-82.32443313467539,45.79829679885159],[-82.32315253424824,45.7981330988944],[-82.31895753287401,45.7978243990711],[-82.31763003245162,45.797839699145186],[-82.31460943145105,45.79751729925631]]},"properties":{"OGF_ID":129690527,"DEPTH":-12.199999809265137,"SURVEY_METHOD":"Transect","SURVEY_DATE":83116800000,"CREATION_METHODOLOGY":"Hand Digitized","LOCATION_ACCURACY":"Within 10 metres","GEOMETRY_UPDATE_DATETIME":1614014337000,"EFFECTIVE_DATETIME":1614008590000,"SYSTEM_DATETIME":1614031016000,"OBJECTID":1276081,"SHAPE.LEN":0}},{"type":"Feature","id":1242673,"geometry":{"type":"LineString","coordinates":[[-82.2853419254226,45.82764210568544],[-82.28865402643768,45.827247605443254],[-82.29127262717282,45.82632500515343],[-82.29135642719295,45.82626450513921],[-82.29227642740699,45.82553970497292],[-82.29337212770318,45.82505100483514],[-82.29420692789009,45.82432710467355],[-82.29487002801574,45.82354560451198],[-82.29578992822975,45.82282080434567],[-82.29593952817878,45.82192600419363],[-82.29608902812774,45.821031304041526],[-82.29640882813098,45.82013460387996],[-82.29672862813425,45.81923800371834],[-82.29687812808324,45.818343203566265],[-82.29694112799815,45.817389903409435],[-82.29743112805559,45.8164913032383],[-82.29792252812001,45.81565220307671],[-82.29832732815032,45.81475460291039],[-82.29856192812646,45.813858902753545],[-82.29888162812964,45.81296220259192],[-82.2990311280787,45.81206750243983],[-82.29935082808193,45.81117080227821],[-82.29967052808516,45.81027410211658],[-82.29990502806127,45.80937840195972],[-82.30013962803741,45.80848270180284],[-82.30045092799858,45.80722890158414],[-82.30085572802888,45.80633130141779],[-82.30134552808627,45.805432601246665],[-82.30192182817774,45.80459260108032],[-82.30266972833043,45.803810100913935],[-82.30385142866056,45.803379800780895],[-82.30512382904583,45.80318670068116],[-82.30639612943104,45.802993600581416],[-82.30766842981622,45.80280040048164],[-82.30903003024953,45.80278480040561],[-82.31012523054554,45.802296000267845],[-82.31122033084146,45.80180710013002],[-82.31231123111638,45.80113969996366],[-82.31297243123488,45.80029859979255],[-82.31312163118386,45.799403799640366],[-82.31276033097036,45.79851489951673],[-82.31206143066258,45.797748999431114],[-82.31136253035484,45.79698299934546],[-82.31049482999993,45.79627859927882],[-82.30971092966516,45.795513599197875],[-82.3088433293103,45.79480909913123],[-82.30772042887423,45.7941074990788],[-82.3069365285394,45.79334249899786],[-82.30590162814447,45.79275899895969],[-82.30470212772342,45.792415498969085],[-82.30342032728926,45.792191999002206],[-82.30197252682197,45.79214889907338],[-82.30061112638872,45.792164399149286],[-82.29933072596158,45.79200039919193],[-82.2980489255274,45.79177679922506],[-82.29684952510631,45.79143319923438],[-82.29573102469136,45.79091009921041],[-82.29367112395052,45.79015949920056],[-82.29246892351541,45.78969679919081],[-82.29126952309434,45.78935309920013],[-82.28990002261918,45.78901139921887],[-82.28871712228207,45.789381999342346],[-82.28770992202708,45.789988699494444],[-82.28678912180612,45.79065399965127],[-82.2859560216262,45.79143729982237],[-82.28520812147345,45.79221969998876],[-82.2846330213888,45.793119200164675],[-82.28397282127702,45.794019700345366],[-82.28322482112421,45.794802000511694],[-82.28256182099841,45.795583500673345],[-82.28189882087266,45.79636490083497],[-82.28106572069272,45.7971482010061],[-82.28040262056692,45.79792960116771],[-82.27956812038002,45.7986534013293],[-82.27890502025421,45.7994348014909],[-82.27807042006728,45.80015850165247],[-82.27740731994149,45.80093990181407],[-82.27624451970907,45.80220320208024],[-82.2756678196173,45.80304310224665],[-82.2750046194915,45.803824502408254],[-82.27391051920218,45.80437250255548],[-82.2735053191716,45.80527010272192],[-82.27301371910698,45.80610910288353],[-82.2725220190423,45.80694810304516],[-82.27185881891643,45.807729403206764],[-82.27128201882468,45.8085693033731],[-82.27087671879407,45.80946690353954],[-82.27038501872939,45.81030590370114],[-82.26998111870576,45.811262903877065],[-82.26957581867521,45.812160504043426],[-82.26925561867166,45.813057104205114],[-82.26893541866819,45.81395370436672],[-82.26870171869876,45.814908804533125],[-82.2685517187495,45.815803504685256],[-82.26831661877313,45.81669920484217],[-82.2681667188238,45.81759390499432],[-82.26818961894274,45.818605705156],[-82.26838021910193,45.819496705289154],[-82.26857071926106,45.82038760542232],[-82.26893151947445,45.82127660554602],[-82.26982611996952,45.82317180580286],[-82.27044102025725,45.82399850590277],[-82.27097072051791,45.824826106007414],[-82.27183842087305,45.82553090607405],[-82.27287362126839,45.82611470611222],[-82.27390882166372,45.82669850615038],[-82.27502642207217,45.82716240616476],[-82.27639682254801,45.82750430614583],[-82.27759692296961,45.82784810613647],[-82.27887952340427,45.828071906103276],[-82.28016072383194,45.8282361060606],[-82.28152432427271,45.82828040599418],[-82.28288652470648,45.82826510591819],[-82.2853419254226,45.82764210568544]]},"properties":{"OGF_ID":129690536,"DEPTH":-18.299999237060547,"SURVEY_METHOD":"Transect","SURVEY_DATE":83116800000,"CREATION_METHODOLOGY":"Hand Digitized","LOCATION_ACCURACY":"Within 10 metres","GEOMETRY_UPDATE_DATETIME":1614014338000,"EFFECTIVE_DATETIME":1614008592000,"SYSTEM_DATETIME":1614031016000,"OBJECTID":1242673,"SHAPE.LEN":0}},{"type":"Feature","id":1392929,"geometry":{"type":"LineString","coordinates":[[-82.2924191263057,45.81514900329268],[-82.29332732666381,45.81576390334268],[-82.29442012694598,45.81515620318586],[-82.29574612719728,45.813593202862705],[-82.29574202717625,45.813414602834136],[-82.29623342724071,45.81257560267259],[-82.29655312724397,45.81167890251094],[-82.29687282724717,45.81078220234934],[-82.29727772727752,45.809884602183004],[-82.29759742728079,45.808987902021364],[-82.29791572727703,45.80803170185021],[-82.29849072736151,45.80713210167431],[-82.29898202742596,45.80629300151274],[-82.2993016274292,45.80539640135108],[-82.29962132743243,45.80449970118945],[-82.2997707273815,45.803605001037305],[-82.30060512756829,45.802881000875715],[-82.30187612794653,45.802628400766444],[-82.30323632837289,45.802553400681006],[-82.30451002876512,45.80241970059076],[-82.30578232915032,45.80222660049103],[-82.30714392958363,45.80221100041501],[-82.30841762997586,45.802077400324805],[-82.30960063031291,45.80170660020121],[-82.31069443060191,45.801158200053926],[-82.31084363055085,45.80026349990177],[-82.30995503009079,45.79866619969248],[-82.30891852968871,45.798023199644845],[-82.30683322882163,45.79620139946395],[-82.30674812879457,45.79620239946871],[-82.30571172839252,45.79555939942102],[-82.3046767279975,45.79497579938289],[-82.30355952758947,45.79451229936847],[-82.30235992716834,45.79416879937786],[-82.30124132675331,45.79364569935396],[-82.29919102606144,45.793311799410745],[-82.29799012563338,45.792908699410546],[-82.29670832519919,45.792685099443666],[-82.29542512475801,45.79240199946728],[-82.29414062430985,45.7920592994813],[-82.29285882387566,45.79183569951441],[-82.29141102340833,45.791792499585476],[-82.29004832296806,45.79174839965189],[-82.28868692253475,45.79176369972772],[-82.28759452225266,45.79237139988456],[-82.28658722199768,45.7929781000366],[-82.28549482171556,45.793585800193384],[-82.28448882146749,45.794252000354966],[-82.28382592134174,45.79503340051658],[-82.28299142115485,45.79575720067818],[-82.28232842102912,45.796538700839776],[-82.28158032087624,45.79732100100616],[-82.28083222072338,45.79810340117251],[-82.28016922059764,45.79888480133413],[-82.2794210204447,45.7996671015005],[-82.27892952038007,45.80050610166213],[-82.27818132022722,45.801288501828495],[-82.27751822010143,45.802069901990095],[-82.27652691993016,45.803390702256316],[-82.27586521981137,45.80423160242745],[-82.27528841971962,45.80507160259382],[-82.274796819655,45.805910602755425],[-82.27439171962443,45.80680810292182],[-82.27407161962094,45.8077048030835],[-82.27383661964458,45.808600403240376],[-82.27368951970934,45.809614203411584],[-82.27362611979413,45.81056750356853],[-82.27356271987894,45.81152070372548],[-82.27358441999088,45.812473103877686],[-82.27377502015003,45.813364004010886],[-82.27438982043773,45.8141906041108],[-82.27491952069826,45.81501820421546],[-82.27545062096583,45.81590530432966],[-82.27623442130079,45.81667060441063],[-82.27726952169604,45.817254304448774],[-82.27846942211745,45.81759810443941],[-82.27974892253798,45.81770290438731],[-82.28119602299873,45.81768670430665],[-82.28255672342539,45.81761190422122],[-82.28365102371465,45.81706370407393],[-82.28465872396981,45.816457103921934],[-82.28549352415676,45.815733203760324],[-82.28632832434373,45.815009403598765],[-82.28690492443533,45.81416940343245],[-82.28748152452694,45.81332940326606],[-82.28797302459147,45.812490403104476],[-82.28846312464897,45.81159180293339],[-82.2889546247135,45.810752802771745],[-82.28935952474392,45.80985510260536],[-82.28967942474723,45.80895850244376],[-82.29008432477767,45.80806090227735],[-82.29040412478099,45.807164202115715],[-82.29063882475717,45.80626850195881],[-82.29023392472678,45.80716610212523],[-82.29063752475018,45.80620900194934],[-82.29104242478063,45.80531140178292],[-82.29144452479699,45.804294701597506],[-82.29184942482745,45.803397101431095],[-82.29225422485779,45.80249950126474],[-82.29274562492235,45.80166040110307],[-82.29323692498679,45.80082140094148],[-82.29389842510548,45.799980400770366],[-82.29473282529227,45.799256500608735],[-82.295432925607,45.80008210070394],[-82.29545492571904,45.80103440085611],[-82.2954784258381,45.80204620101781],[-82.29515872583478,45.802942901179485],[-82.29458232574322,45.80378290134583],[-82.29417742571285,45.80468060151222],[-82.29394282573666,45.80557630166912],[-82.2936231257334,45.80647290183079],[-82.29330332573011,45.80736960199242],[-82.2929835257268,45.80826620215403],[-82.2928340257777,45.80916100230619],[-82.29259932580148,45.81005670246309],[-82.29244972585236,45.810951402615224],[-82.29221502587615,45.81184710277208],[-82.29206682593411,45.81280140293374],[-82.29191722598496,45.81369610308584],[-82.2924191263057,45.81514900329268]]},"properties":{"OGF_ID":129690537,"DEPTH":-24.399999618530273,"SURVEY_METHOD":"Transect","SURVEY_DATE":83116800000,"CREATION_METHODOLOGY":"Hand Digitized","LOCATION_ACCURACY":"Within 10 metres","GEOMETRY_UPDATE_DATETIME":1614014338000,"EFFECTIVE_DATETIME":1614008592000,"SYSTEM_DATETIME":1614031016000,"OBJECTID":1392929,"SHAPE.LEN":0}},{"type":"Feature","id":1259361,"geometry":{"type":"LineString","coordinates":[[-82.32291533579644,45.812845801275834],[-82.3240689359553,45.81094650090782],[-82.32528793607499,45.8085033004487],[-82.32635973617543,45.80631190003809],[-82.32641073619165,45.80631130003523],[-82.32669593618382,45.80541489987554],[-82.32713513622895,45.80455249971295],[-82.32757353626987,45.80365439954472],[-82.32790973627824,45.802757399382145],[-82.32824593628665,45.80186049921959],[-82.32847993626257,45.800964699062725],[-82.3277967359545,45.80015109896858],[-82.3266122355303,45.79973619896573],[-82.32533243510737,45.79960809901419],[-82.32409943467957,45.799300899031294],[-82.32276773423615,45.79913769907691],[-82.32138753378909,45.79908229914248],[-82.32011613340818,45.799311299247975],[-82.31788313276073,45.79990859946473],[-82.31703113256448,45.80059719962159],[-82.31664373253976,45.801494699787035],[-82.31646053257997,45.80238979994104],[-82.31638023265691,45.80331950009504],[-82.31624893271758,45.80424980025196],[-82.3159125327091,45.80514670041452],[-82.31557613270063,45.80604360057707],[-82.31503373261866,45.80687150073962],[-82.31449303254516,45.80777070091357],[-82.31384773242651,45.80856400107613],[-82.31316133234216,45.80978650131002],[-82.31373143256297,45.81013710133568],[-82.31448323273526,45.80952120119592],[-82.31533453292728,45.80879700103342],[-82.31573713302782,45.808542300970636],[-82.31590963317338,45.80936190109328],[-82.31533223315523,45.810868901367066],[-82.31465253310456,45.812377001646546],[-82.31411933306896,45.81359770187181],[-82.31279503290386,45.81593480231952],[-82.31101593261764,45.818491402827036],[-82.30988643247116,45.82043340320055],[-82.30939833242226,45.82140340338302],[-82.30966453255829,45.8218648034429],[-82.31001543263842,45.82157500337729],[-82.31046923275525,45.82131970331172],[-82.31091723284263,45.82081450320626],[-82.31157363301607,45.82048550311786],[-82.31187923310937,45.820446203095],[-82.3122426332527,45.82069210311499],[-82.31190353323154,45.821481903260434],[-82.31181313325797,45.8219830033459],[-82.3121782334097,45.82230030337724],[-82.31299463366562,45.82225520332595],[-82.31400273392335,45.82167210317763],[-82.31521093422505,45.820908002989476],[-82.31726553469352,45.819205402604474],[-82.31746393472905,45.81895310255316],[-82.3181579348513,45.81805210237068],[-82.31895733502286,45.81729270220529],[-82.32035783533048,45.81602620192586],[-82.32105433546533,45.81523230176045],[-82.32175153560438,45.81447410160075],[-82.32291533579644,45.812845801275834]]},"properties":{"OGF_ID":129690528,"DEPTH":-18.299999237060547,"SURVEY_METHOD":"Transect","SURVEY_DATE":83116800000,"CREATION_METHODOLOGY":"Hand Digitized","LOCATION_ACCURACY":"Within 10 metres","GEOMETRY_UPDATE_DATETIME":1614014337000,"EFFECTIVE_DATETIME":1614008590000,"SYSTEM_DATETIME":1614031016000,"OBJECTID":1259361,"SHAPE.LEN":0}},{"type":"Feature","id":1430097,"geometry":{"type":"LineString","coordinates":[[-82.31614613386442,45.814936801977915],[-82.31622163377745,45.81393070181191],[-82.31669783376734,45.81246060154957],[-82.31733303383537,45.81123870131855],[-82.31846213398175,45.80929670094499],[-82.31846123397749,45.80926100093928],[-82.31859253391679,45.80833080078247],[-82.31913493399873,45.80750290061994],[-82.31967633407635,45.80663930045166],[-82.32021783415404,45.8057757002834],[-82.3206571341992,45.80491340012084],[-82.32078833413843,45.80398309996398],[-82.32091873407353,45.8030170998014],[-82.3210499340128,45.80208679964447],[-82.32113013393578,45.801157099490474],[-82.32167233401768,45.80032919932792],[-82.32290453444129,45.8006006993051],[-82.32338433468857,45.80145249941639],[-82.32366073487502,45.80234239954469],[-82.32383593503329,45.80326909968448],[-82.32426553526855,45.80415709980423],[-82.3254306355959,45.803750699675916],[-82.32566473557182,45.80285489951905],[-82.32606053563863,45.80231449941069],[-82.3265770358306,45.80255859942208],[-82.32674383594674,45.80312819950478],[-82.32646793600087,45.80441739972725],[-82.3262696359654,45.804669699778586],[-82.32593343595697,45.805566699941096],[-82.32544313589563,45.80642970010655],[-82.32505573587092,45.80732720027196],[-82.32471953586256,45.808224200434466],[-82.3240751357482,45.80905320060272],[-82.3235337356706,45.809916800770964],[-82.32304333560916,45.81077980093642],[-82.32190763542923,45.81243620126436],[-82.32126233531062,45.8132295014269],[-82.32066893521255,45.814058001592244],[-82.31986873503676,45.814781601751946],[-82.3188088347586,45.81532970189739],[-82.31790473454191,45.81598310205142],[-82.31614613386442,45.814936801977915]]},"properties":{"OGF_ID":129690530,"DEPTH":-24.399999618530273,"SURVEY_METHOD":"Transect","SURVEY_DATE":83116800000,"CREATION_METHODOLOGY":"Hand Digitized","LOCATION_ACCURACY":"Within 10 metres","GEOMETRY_UPDATE_DATETIME":1614014337000,"EFFECTIVE_DATETIME":1614008590000,"SYSTEM_DATETIME":1614031016000,"OBJECTID":1430097,"SHAPE.LEN":0}},{"type":"Feature","id":1406481,"geometry":{"type":"LineString","coordinates":[[-82.31837623311917,45.80172949973132],[-82.31797153320268,45.80365840006373],[-82.31808383328571,45.80408570012649],[-82.31860033347768,45.80432980013789],[-82.31915443361851,45.80400190005516],[-82.31965063370943,45.803388899929715],[-82.31999463375581,45.80281339981845],[-82.32002963369202,45.802134299707255],[-82.32016083363128,45.80120399955032],[-82.31983763344964,45.800493299453365],[-82.31927943328779,45.800642699507556],[-82.31872613315117,45.80100629959599],[-82.31837623311917,45.80172949973132]]},"properties":{"OGF_ID":129690529,"DEPTH":-24.399999618530273,"SURVEY_METHOD":"Transect","SURVEY_DATE":83116800000,"CREATION_METHODOLOGY":"Hand Digitized","LOCATION_ACCURACY":"Within 10 metres","GEOMETRY_UPDATE_DATETIME":1614014337000,"EFFECTIVE_DATETIME":1614008590000,"SYSTEM_DATETIME":1614031016000,"OBJECTID":1406481,"SHAPE.LEN":0}},{"type":"Feature","id":1327953,"geometry":{"type":"LineString","coordinates":[[-82.28061062088881,45.80024710152981],[-82.28039122091756,45.801144701686205],[-82.28048862100765,45.801679401767075],[-82.28133412125055,45.80143180168159],[-82.28216602142349,45.80058890150102],[-82.28266562153006,45.80010700139645],[-82.28324762164972,45.799505101268124],[-82.28348652164703,45.7987880011397],[-82.28372682165133,45.79813040102079],[-82.28412902166784,45.7971138008354],[-82.28428002162407,45.79627860069267],[-82.28393422148775,45.796044300673586],[-82.2831779212929,45.796469600782885],[-82.28285122125456,45.79706860089696],[-82.28202222109562,45.798030501096655],[-82.28128092097774,45.79911050131052],[-82.28061062088881,45.80024710152981]]},"properties":{"OGF_ID":129690541,"DEPTH":-33.5,"SURVEY_METHOD":"Transect","SURVEY_DATE":83116800000,"CREATION_METHODOLOGY":"Hand Digitized","LOCATION_ACCURACY":"Within 10 metres","GEOMETRY_UPDATE_DATETIME":1614014338000,"EFFECTIVE_DATETIME":1614008593000,"SYSTEM_DATETIME":1614031016000,"OBJECTID":1327953,"SHAPE.LEN":0}},{"type":"Feature","id":1404001,"geometry":{"type":"LineString","coordinates":[[-82.3421854439392,45.830812103125496],[-82.34209274410992,45.83262310342182],[-82.34187754430492,45.83500710381681],[-82.34188664434997,45.835388003877604],[-82.34245224462485,45.836238703983845],[-82.34328804497515,45.836990904059576],[-82.3439898452934,45.83784000415821],[-82.34482564564372,45.83859220423393],[-82.34579774603745,45.83934280430207],[-82.34663364638777,45.840095004377844],[-82.34773744680234,45.84065350440795],[-82.34897744726021,45.84121040443041],[-82.3502129476956,45.8415769044225],[-82.35158004815172,45.841751204376614],[-82.35294264858534,45.84173510430028],[-82.35430514901894,45.84171900422402],[-82.35566764945249,45.8417028041477],[-82.35646664962238,45.84093130398047],[-82.35740184983557,45.84015810380554],[-82.3582008500054,45.83938650363826],[-82.35886125012064,45.83852140346345],[-82.35966015029047,45.83774980329616],[-82.36032045040562,45.83688460312137],[-82.36098075052078,45.83601940294651],[-82.36164105063595,45.83515430277168],[-82.36243755079445,45.83428750258925],[-82.36323165094164,45.833325402391594],[-82.36416665115478,45.832552202216654],[-82.36510395137914,45.83187420205694],[-82.36590275154894,45.83110260188965],[-82.36683995177326,45.830424601729916],[-82.36777725199767,45.82974660157019],[-82.36871205221065,45.828973301395266],[-82.36951075238042,45.82820170122797],[-82.37030935255011,45.82743000106063],[-82.37124415276311,45.826656800885715],[-82.37204035292152,45.82578990070323],[-82.37270035303656,45.82492460052838],[-82.3733603531516,45.82405940035351],[-82.37415655331,45.823192500171004],[-82.37468025338168,45.822328900003754],[-82.37520395345341,45.82146519983654],[-82.37664815367029,45.8192568994032],[-82.37730805378534,45.81839169922831],[-82.3781063539549,45.81761999906103],[-82.37890475412452,45.81684829889367],[-82.38011865445787,45.816357298749004],[-82.38147825487975,45.816245598657474],[-82.38190795511133,45.817097798771314],[-82.38193155522421,45.818050098923216],[-82.38209135538047,45.81900069906748],[-82.38252115561205,45.819852799181305],[-82.38308715588695,45.82070329928742],[-82.3843200563107,45.820974099264276],[-82.38470735633898,45.820112099104705],[-82.38523085641063,45.81924839893742],[-82.38589065652556,45.81838309876256],[-82.38641415659716,45.817519498595324],[-82.38707375671204,45.81665409842043],[-82.38746105674032,45.81579209826082],[-82.38770975671399,45.814836498093655],[-82.38768375658978,45.81378899792654],[-82.38779625652013,45.812834997767006],[-82.38777265640722,45.81188279761511],[-82.38734285617568,45.811030697501266],[-82.38598345575396,45.811142397592775],[-82.38476495539808,45.81144299770706],[-82.38340315496497,45.81145949778342],[-82.38204605455444,45.81166639789014],[-82.38068905414397,45.81187329799679],[-82.3793272537109,45.81188979807313],[-82.37796545327781,45.81190619814943],[-82.37660835286727,45.812113098256155],[-82.37525125245669,45.812319898362816],[-82.37389415204615,45.81252679846948],[-82.37253935164684,45.81282879859136],[-82.37132075129085,45.813129298705604],[-82.36996125086898,45.81324079879707],[-82.36860405045833,45.81344759890374],[-82.36724695004774,45.8136543990104],[-82.36603054970298,45.81404999913982],[-82.3648165493695,45.814540799284444],[-82.36402034921106,45.81540759946696],[-82.3632218490413,45.81617919963427],[-82.36256184892619,45.81704439980912],[-82.36190174881102,45.81790959998403],[-82.36082614853201,45.818493900136204],[-82.36002744836226,45.819265500303544],[-82.35923114820376,45.820132300486016],[-82.35801924788139,45.82071820064576],[-82.35694354760238,45.82130260079799],[-82.35600624737796,45.82198050095769],[-82.3549328471102,45.82266000112502],[-82.35385934684241,45.8233396012924],[-82.35264734651999,45.82392550145221],[-82.35157144624091,45.82450970160435],[-82.35063414601647,45.82518760176405],[-82.34955824573736,45.8257719019162],[-82.34848234545821,45.82635610206833],[-82.34687074505077,45.827327702311756],[-82.34593554483747,45.82810080248668],[-82.34486184456965,45.82878030265399],[-82.34378584429045,45.82936450280614],[-82.3421854439392,45.830812103125496]]},"properties":{"OGF_ID":129690542,"DEPTH":-12.199999809265137,"SURVEY_METHOD":"Transect","SURVEY_DATE":83116800000,"CREATION_METHODOLOGY":"Hand Digitized","LOCATION_ACCURACY":"Within 10 metres","GEOMETRY_UPDATE_DATETIME":1614014338000,"EFFECTIVE_DATETIME":1614008593000,"SYSTEM_DATETIME":1614031016000,"OBJECTID":1404001,"SHAPE.LEN":0}},{"type":"Feature","id":1322081,"geometry":{"type":"LineString","coordinates":[[-82.30271633033873,45.821872803819275],[-82.30362403057242,45.82136230368814],[-82.30417253068394,45.82078450356551],[-82.30467833082128,45.8205644035028],[-82.30519663102176,45.82088000352559],[-82.30556503119027,45.821340203579794],[-82.30669033155637,45.82139870352847],[-82.3074021317672,45.82124770346573],[-82.30789863185817,45.820634803340276],[-82.30839353194072,45.81995040320344],[-82.30893943203957,45.81926540306369],[-82.30943763213894,45.81872390294964],[-82.3099375322468,45.818253802847025],[-82.3107898324431,45.81756530269017],[-82.31133233252505,45.81673750252764],[-82.31177193257028,45.815875102365126],[-82.31221143261554,45.81501270220257],[-82.3126509326608,45.81415040204004],[-82.31319253273847,45.81328680187181],[-82.31373413281624,45.81242330170358],[-82.31417363286143,45.811560901541014],[-82.31430493280071,45.810630601384176],[-82.31303333241969,45.81085960148967],[-82.31197353214154,45.811407601635075],[-82.31126273193506,45.81159430170353],[-82.31119323182621,45.810809301580896],[-82.31162513183351,45.80962550136703],[-82.31216173188605,45.80854770116452],[-82.31285903202512,45.80778950100482],[-82.31309923203062,45.80714380088789],[-82.3139505322227,45.806419500725326],[-82.31478663233901,45.805052500460086],[-82.31481593224585,45.804123400308946],[-82.3142851319823,45.803272200200546],[-82.31345053163398,45.802531600126315],[-82.3123154312176,45.802044600109134],[-82.31115033089014,45.80245090023745],[-82.31035013071434,45.803174500397155],[-82.30934313046083,45.80379330055114],[-82.30854373028919,45.80455260071655],[-82.30774343011333,45.805276200876264],[-82.30704772998253,45.80610580104737],[-82.30629932982714,45.80686450120993],[-82.30565472971264,45.807693501378196],[-82.30516412965106,45.80855640154357],[-82.30467342958949,45.80941930170898],[-82.30418692954898,45.8104608019029],[-82.30379842951989,45.811322602062674],[-82.30346182951133,45.812219402225175],[-82.30277932944782,45.81362040248754],[-82.30233962940251,45.81448270265008],[-82.30184892934095,45.815345602815476],[-82.3014092292956,45.816207902978014],[-82.30086652921355,45.81703570314057],[-82.30027282911523,45.81786410330596],[-82.29978202905367,45.818727003471345],[-82.29924012897578,45.81959050363956],[-82.29859442885699,45.82038370380212],[-82.29789682871775,45.821141803961766],[-82.29725182860312,45.82197070412998],[-82.29681202855778,45.822833004292505],[-82.29749432886176,45.82361110438088],[-82.29876712924718,45.823418004281116],[-82.29993282957491,45.82301180415285],[-82.3011504299231,45.822640804027394],[-82.30271633033873,45.821872803819275]]},"properties":{"OGF_ID":129690531,"DEPTH":-12.199999809265137,"SURVEY_METHOD":"Transect","SURVEY_DATE":83116800000,"CREATION_METHODOLOGY":"Hand Digitized","LOCATION_ACCURACY":"Within 10 metres","GEOMETRY_UPDATE_DATETIME":1614014337000,"EFFECTIVE_DATETIME":1614008591000,"SYSTEM_DATETIME":1614031016000,"OBJECTID":1322081,"SHAPE.LEN":0}},{"type":"Feature","id":1229009,"geometry":{"type":"LineString","coordinates":[[-82.2883455248754,45.81398480332501],[-82.28788382495058,45.816004003675],[-82.28790572506263,45.816956303827126],[-82.28858812528647,45.817008203798686],[-82.28899442532386,45.81617010364184],[-82.2896438253795,45.814793403385124],[-82.29054022547439,45.81305680305721],[-82.29125952548007,45.81102440269116],[-82.29196772542973,45.80851590224907],[-82.29269102545642,45.80666210191155],[-82.29349392548218,45.804569201531166],[-82.29413202548179,45.80271640119837],[-82.29443932542202,45.80128400095112],[-82.29384082521837,45.80117170096529],[-82.29302702513658,45.802788401269545],[-82.29230382510991,45.8046422016071],[-82.29166422510329,45.80643560193041],[-82.29086542509852,45.80870700233931],[-82.29014072506479,45.81050120266728],[-82.28924982499797,45.81247600303331],[-82.2883455248754,45.81398480332501]]},"properties":{"OGF_ID":129690538,"DEPTH":-18.299999237060547,"SURVEY_METHOD":"Transect","SURVEY_DATE":83116800000,"CREATION_METHODOLOGY":"Hand Digitized","LOCATION_ACCURACY":"Within 10 metres","GEOMETRY_UPDATE_DATETIME":1614014338000,"EFFECTIVE_DATETIME":1614008592000,"SYSTEM_DATETIME":1614031016000,"OBJECTID":1229009,"SHAPE.LEN":0}},{"type":"Feature","id":1342305,"geometry":{"type":"LineString","coordinates":[[-82.30478153061749,45.8184199031521],[-82.30561133070017,45.8167673028413],[-82.30704903095271,45.814893302461996],[-82.3081308310999,45.81309480211407],[-82.3091195312608,45.81169040183468],[-82.3102530314284,45.80992700148962],[-82.31103243149904,45.80831060118733],[-82.31161923156354,45.80719650097629],[-82.3118979315222,45.8060145007709],[-82.31155883126053,45.804625200565546],[-82.31133363109035,45.80373480043431],[-82.31071843088277,45.8036347004514],[-82.31006723073466,45.80417800057404],[-82.30923343063088,45.80565210085638],[-82.3083419304772,45.806841101095905],[-82.30688533012794,45.80789370134403],[-82.30578352987973,45.80883510155503],[-82.30498982973752,45.80984440176037],[-82.30455782973004,45.81102810197421],[-82.30422702975095,45.812175002176744],[-82.30354372968327,45.81354020243344],[-82.30286622964505,45.81515540272999],[-82.30193412952973,45.816809203046496],[-82.30075162935833,45.81868020341148],[-82.29965952916055,45.8200501036909],[-82.29877422904042,45.82152470397602],[-82.29858572905538,45.8222056040958],[-82.29920442927991,45.822448604101545],[-82.30032402961663,45.822257204010285],[-82.30153322992268,45.82152900382779],[-82.3022860300992,45.82094890369382],[-82.30313523027881,45.82011760351416],[-82.30388463043843,45.819394703357396],[-82.30478153061749,45.8184199031521]]},"properties":{"OGF_ID":129690533,"DEPTH":-6.099999904632568,"SURVEY_METHOD":"Transect","SURVEY_DATE":83116800000,"CREATION_METHODOLOGY":"Hand Digitized","LOCATION_ACCURACY":"Within 10 metres","GEOMETRY_UPDATE_DATETIME":1614014337000,"EFFECTIVE_DATETIME":1614008591000,"SYSTEM_DATETIME":1614031016000,"OBJECTID":1342305,"SHAPE.LEN":0}},{"type":"Feature","id":1359889,"geometry":{"type":"LineString","coordinates":[[-82.30158112919655,45.81481280274417],[-82.30216892926538,45.81373450253886],[-82.3025492292524,45.81251560232208],[-82.30312872927912,45.811080102059755],[-82.30346122926673,45.81000470186869],[-82.30343282912366,45.80879050167467],[-82.30359632898262,45.80703830138374],[-82.3031159287312,45.806150701266745],[-82.30264802854288,45.80579880123532],[-82.3016961283266,45.80659560141503],[-82.30096172824258,45.80796130167451],[-82.30048682826093,45.80950280194837],[-82.29977072826944,45.81165420233338],[-82.29891872831752,45.81455740284674],[-82.2980467282647,45.816603403223155],[-82.29771662828968,45.81778600343133],[-82.29719462831278,45.81950650373642],[-82.29706042836077,45.82032970387618],[-82.29722532846849,45.82082790394745],[-82.29783652865515,45.82074950390189],[-82.29862802878485,45.819633103679486],[-82.29921442884537,45.818483403462736],[-82.3000033289624,45.817259903223245],[-82.30074532908426,45.816215503015066],[-82.30158112919655,45.81481280274417]]},"properties":{"OGF_ID":129690534,"DEPTH":-12.199999809265137,"SURVEY_METHOD":"Transect","SURVEY_DATE":83116800000,"CREATION_METHODOLOGY":"Hand Digitized","LOCATION_ACCURACY":"Within 10 metres","GEOMETRY_UPDATE_DATETIME":1614014337000,"EFFECTIVE_DATETIME":1614008591000,"SYSTEM_DATETIME":1614031016000,"OBJECTID":1359889,"SHAPE.LEN":0}},{"type":"Feature","id":1313505,"geometry":{"type":"LineString","coordinates":[[-82.37602365311328,45.816025698917215],[-82.3760564532713,45.81735889912988],[-82.37451355319163,45.821092499813936],[-82.37294475298776,45.82377860033083],[-82.37241155287086,45.824261300437286],[-82.37161535271252,45.82512820061979],[-82.37053975243357,45.825712600772015],[-82.36974115226388,45.82648430093929],[-82.36894255209418,45.82725590110659],[-82.36814385192449,45.828027501273894],[-82.36734525175478,45.8287991014412],[-82.36641035154172,45.8295724016161],[-82.36547545132863,45.830345601791],[-82.36440195106091,45.83102530195843],[-82.36346465083653,45.83170330211814],[-82.3625272506121,45.83238120227782],[-82.36172845044229,45.83315280244511],[-82.36092965027251,45.833924402612425],[-82.35999225004807,45.834602402772134],[-82.35905484982364,45.835280302931885],[-82.35825824966507,45.83614710311432],[-82.35704374933135,45.8366378032589],[-82.35542504889011,45.8373238034568],[-82.35420574853379,45.83762410357103],[-82.35298654817747,45.8379243036852],[-82.3516194477213,45.837750003731145],[-82.35051574730684,45.837191503701035],[-82.34954594692442,45.836536103648044],[-82.3493866467683,45.83558540350382],[-82.34949984669893,45.83463150334429],[-82.34961304662951,45.83367760318475],[-82.3495900465168,45.83272530303284],[-82.34956704640408,45.83177300288095],[-82.349816446378,45.83081750271382],[-82.34965724622197,45.829866802569505],[-82.34909164594713,45.829016202463286],[-82.34906854583446,45.828063902311364],[-82.34972894594968,45.82719870213648],[-82.3506663461742,45.82652090197677],[-82.35187844649666,45.825935001817],[-82.35295434677576,45.82535070166484],[-82.35389164700018,45.824672801505145],[-82.35469044717009,45.8239013013378],[-82.35562544738323,45.8231281011629],[-82.35683744770562,45.82254220100309],[-82.35777464793003,45.82186420084337],[-82.35884804819776,45.82118470067602],[-82.35992374847676,45.820600300523864],[-82.36086094870117,45.819922400364106],[-82.36193424896881,45.81924280019671],[-82.36273284913858,45.81847120002945],[-82.36366994936297,45.81779319986972],[-82.36446614952139,45.81692639968717],[-82.36540324974573,45.81624839952743],[-82.36663595016942,45.816519399504365],[-82.36733785048756,45.81736829960297],[-82.36763355068697,45.81831739973968],[-82.36847175104849,45.81916469983061],[-82.36970445147222,45.819435699807514],[-82.37120495196001,45.819512899738825],[-82.37213965217302,45.81873959956387],[-82.37307665239732,45.818061599404125],[-82.37401355262155,45.81738349924435],[-82.37602365311328,45.816025698917215]]},"properties":{"OGF_ID":129690543,"DEPTH":-18.299999237060547,"SURVEY_METHOD":"Transect","SURVEY_DATE":83116800000,"CREATION_METHODOLOGY":"Hand Digitized","LOCATION_ACCURACY":"Within 10 metres","GEOMETRY_UPDATE_DATETIME":1614014338000,"EFFECTIVE_DATETIME":1614008593000,"SYSTEM_DATETIME":1614031016000,"OBJECTID":1313505,"SHAPE.LEN":0}},{"type":"Feature","id":1354961,"geometry":{"type":"LineString","coordinates":[[-82.28687592357886,45.806487502197044],[-82.28561892316581,45.806384702248295],[-82.28433412271742,45.80604190226236],[-82.28296702225597,45.8058191023002],[-82.2818429218128,45.80505780223819],[-82.28181972169385,45.80404590207648],[-82.28096182138792,45.803757902076335],[-82.28055672135741,45.80465540224273],[-82.28032732140906,45.805789202437694],[-82.28034922152108,45.806741502589865],[-82.28036142158399,45.80727720267551],[-82.28146652192926,45.80720530260436],[-82.2823945221853,45.806837702495116],[-82.2840129227071,45.806879002414526],[-82.28589762336608,45.80739360239572],[-82.28641642357063,45.80774500242435],[-82.28668822373595,45.80845640252425],[-82.28721122396153,45.80898630258135],[-82.28889832442637,45.808312402381866],[-82.28887222429331,45.80718150220114],[-82.28902182424245,45.80628680204899],[-82.2884055239478,45.805400701939526],[-82.28756132371194,45.80570790203454],[-82.28687592357886,45.806487502197044]]},"properties":{"OGF_ID":129690539,"DEPTH":-31.100000381469727,"SURVEY_METHOD":"Transect","SURVEY_DATE":83116800000,"CREATION_METHODOLOGY":"Hand Digitized","LOCATION_ACCURACY":"Within 10 metres","GEOMETRY_UPDATE_DATETIME":1614014338000,"EFFECTIVE_DATETIME":1614008592000,"SYSTEM_DATETIME":1614031016000,"OBJECTID":1354961,"SHAPE.LEN":0}},{"type":"Feature","id":1441425,"geometry":{"type":"LineString","coordinates":[[-82.30220702897394,45.81098350209394],[-82.30239292894642,45.81019550195704],[-82.30273122896345,45.80937000180586],[-82.3027113288625,45.80851300166895],[-82.30248872870496,45.80772960155484],[-82.30227862861051,45.80748200152628],[-82.30159202852596,45.808704301760145],[-82.3011648285437,45.81010230200831],[-82.30067832850315,45.811143802202245],[-82.30025192852511,45.81257750245607],[-82.30001402853217,45.813330402590076],[-82.29983722860595,45.81451120278975],[-82.2994535286021,45.815587202983686],[-82.29917202863076,45.81666210317189],[-82.29903212864933,45.81723520327169],[-82.29924132873954,45.81744710329451],[-82.29973962883903,45.816905703180446],[-82.30023042890066,45.81604280301506],[-82.30092382901886,45.815106102826896],[-82.3012094290112,45.81420980266717],[-82.30149342899517,45.81324210249607],[-82.30177822898331,45.81231010233062],[-82.30196662896839,45.81162920221087],[-82.30220702897394,45.81098350209394]]},"properties":{"OGF_ID":129690535,"DEPTH":-6.099999904632568,"SURVEY_METHOD":"Transect","SURVEY_DATE":83116800000,"CREATION_METHODOLOGY":"Hand Digitized","LOCATION_ACCURACY":"Within 10 metres","GEOMETRY_UPDATE_DATETIME":1614014337000,"EFFECTIVE_DATETIME":1614008592000,"SYSTEM_DATETIME":1614031016000,"OBJECTID":1441425,"SHAPE.LEN":0}},{"type":"Feature","id":1396993,"geometry":{"type":"LineString","coordinates":[[-82.30771703166624,45.8194223031549],[-82.30706133149698,45.819787003249054],[-82.30666283141746,45.820220203340256],[-82.30604733120973,45.82012010335737],[-82.30598543113868,45.81965640328606],[-82.30653223124179,45.819007203152076],[-82.30707733133637,45.81828650300667],[-82.30747173139486,45.817674702886904],[-82.30811813151779,45.81691720273012],[-82.30851333158047,45.81634110261599],[-82.30900813166305,45.815656702479174],[-82.30965453178597,45.814899202322344],[-82.30994503180351,45.81421710219686],[-82.31038953187402,45.813569102068534],[-82.31093793198542,45.81299120194591],[-82.31174243218234,45.81244620181476],[-82.31219373228654,45.81208380173209],[-82.31274953243579,45.81182730166077],[-82.31295553250929,45.811896401660775],[-82.3132243326579,45.81246490173778],[-82.31298493265663,45.81314630186041],[-82.31249013257411,45.8138307019973],[-82.31209163249461,45.81426400208854],[-82.31169813244033,45.814911502213974],[-82.3114529324096,45.815342902296685],[-82.31115823237106,45.81584640239361],[-82.3106650322969,45.81660220254192],[-82.31022133223061,45.817286002675935],[-82.30987473217158,45.81775440277002],[-82.30937573206796,45.81826020287835],[-82.30882223193123,45.81862380296676],[-82.30771703166624,45.8194223031549]]},"properties":{"OGF_ID":129690532,"DEPTH":-6.099999904632568,"SURVEY_METHOD":"Transect","SURVEY_DATE":83116800000,"CREATION_METHODOLOGY":"Hand Digitized","LOCATION_ACCURACY":"Within 10 metres","GEOMETRY_UPDATE_DATETIME":1614014337000,"EFFECTIVE_DATETIME":1614008591000,"SYSTEM_DATETIME":1614031016000,"OBJECTID":1396993,"SHAPE.LEN":0}}]}